{
 "features": [
  {
   "geometry": {
    "coordinates": [
     [
      [
       -49.380579158473694,
       -20.805009161414358
      ],
      [
       -49.38126198406003,
       -20.805647228159955
      ],
      [
       -49.381957986412026,
       -20.804989848339748
      ],
      [
       -49.3826620784542,
       -20.804316230440556
      ],
      [
       -49.383318566781256,
       -20.803691965714656
      ],
      [
       -49.3840288371388,
       -20.803056662282845
      ],
      [
       -49.38470047884202,
       -20.80241871720526
      ],
      [
       -49.38539443654571,
       -20.80177002468733
      ],
      [
       -49.386079874809944,
       -20.801117293201624
      ],
      [
       -49.38677855017545,
       -20.800469560090562
      ],
      [
       -49.38813951365267,
       -20.799168737009147
      ],
      [
       -49.38882117016471,
       -20.798524782928794
      ],
      [
       -49.38949294195619,
       -20.79788153782904
      ],
      [
       -49.3901874953948,
       -20.797227651947527
      ],
      [
       -49.39087315136439,
       -20.796588345690715
      ],
      [
       -49.39152918039811,
       -20.79596051706388
      ]
     ],
     [
      [
       -49.390849881492,
       -20.79530916178948
      ],
      [
       -49.38621929303398,
       -20.799682231997387
      ],
      [
       -49.38402100190714,
       -20.801761291380387
      ],
      [
       -49.37957489530949,
       -20.80594847833653
      ],
      [
       -49.377969361115476,
       -20.8074600746347
      ]
     ]
    ],
    "type": "MultiLineString"
   },
   "id": 1,
   "properties": {
    "COLOR": 0,
    "ELEVATION": 0,
    "FID_": 0,
    "LAYER": "1",
    "LINETYPE": " ",
    "LINEWT": 0,
    "OBJECTID": 1,
    "REFNAME": "Corredor",
    "SHAPE.LEN": 3513.7241277116204,
    "SJRP.Corredores_de_Ônibus.ENTITY": " "
   },
   "type": "Feature"
  },
  {
   "geometry": {
    "coordinates": [
     [
      [
       -49.37049769756217,
       -20.80163867573469
      ],
      [
       -49.37184143076608,
       -20.802917097535108
      ],
      [
       -49.37366968082406,
       -20.80464743114065
      ],
      [
       -49.37642287848462,
       -20.807275634757037
      ]
     ],
     [
      [
       -49.37116846762145,
       -20.800990188670237
      ],
      [
       -49.37173946460924,
       -20.80155605292722
      ],
      [
       -49.37254864565036,
       -20.802342808538278
      ],
      [
       -49.37677410851583,
       -20.806336168944377
      ]
     ]
    ],
    "type": "MultiLineString"
   },
   "id": 2,
   "properties": {
    "COLOR": 0,
    "ELEVATION": 0,
    "FID_": 0,
    "LAYER": "2",
    "LINETYPE": " ",
    "LINEWT": 0,
    "OBJECTID": 2,
    "REFNAME": "Corredor",
    "SHAPE.LEN": 1708.6338801833301,
    "SJRP.Corredores_de_Ônibus.ENTITY": " "
   },
   "type": "Feature"
  },
  {
   "geometry": {
    "coordinates": [
     [
      [
       -49.38295350952431,
       -20.815746835769374
      ],
      [
       -49.38225380334778,
       -20.816408205650717
      ],
      [
       -49.3815917118197,
       -20.81574925936871
      ],
      [
       -49.38089204186807,
       -20.815102670037113
      ],
      [
       -49.3802023201549,
       -20.814461678724065
      ],
      [
       -49.379502996593494,
       -20.813775890125754
      ],
      [
       -49.37883003439083,
       -20.813150217981303
      ],
      [
       -49.37815034281212,
       -20.81249647170872
      ],
      [
       -49.37723510385436,
       -20.81336388608845
      ]
     ],
     [
      [
       -49.38295350952431,
       -20.815746835769374
      ],
      [
       -49.382281712333175,
       -20.81511415562497
      ],
      [
       -49.381585633882715,
       -20.81446633110664
      ],
      [
       -49.380895059186805,
       -20.813797227900526
      ],
      [
       -49.380180166149984,
       -20.813147453694626
      ],
      [
       -49.379506424243885,
       -20.812496368419673
      ],
      [
       -49.378824296790825,
       -20.81186059845082
      ],
      [
       -49.37813446446222,
       -20.81121620511965
      ],
      [
       -49.37744053415362,
       -20.811846128051943
      ],
      [
       -49.37654633882409,
       -20.812705848424695
      ]
     ],
     [
      [
       -49.38487078767551,
       -20.815253811822668
      ],
      [
       -49.384330481919115,
       -20.81576755446894
      ],
      [
       -49.38367341482328,
       -20.81641345298429
      ],
      [
       -49.38295350952431,
       -20.815746835769374
      ]
     ],
     [
      [
       -49.384848473424604,
       -20.813955813566483
      ],
      [
       -49.38295350952431,
       -20.815746835769374
      ]
     ]
    ],
    "type": "MultiLineString"
   },
   "id": 3,
   "properties": {
    "COLOR": 0,
    "ELEVATION": 0,
    "FID_": 0,
    "LAYER": "3",
    "LINETYPE": " ",
    "LINEWT": 0,
    "OBJECTID": 3,
    "REFNAME": "Corredor",
    "SHAPE.LEN": 2353.63736217749,
    "SJRP.Corredores_de_Ônibus.ENTITY": " "
   },
   "type": "Feature"
  },
  {
   "geometry": {
    "coordinates": [
     [
      [
       -49.385005713855826,
       -20.823034424979006
      ],
      [
       -49.38395621617112,
       -20.821316897028378
      ],
      [
       -49.38342904426425,
       -20.820447138785063
      ],
      [
       -49.38294278026022,
       -20.81959316117476
      ],
      [
       -49.38248907939552,
       -20.818810655407006
      ],
      [
       -49.38218154506369,
       -20.81829942458101
      ],
      [
       -49.381934254991066,
       -20.817908802319273
      ],
      [
       -49.38089551732805,
       -20.81636872112431
      ],
      [
       -49.380222288067735,
       -20.815748573081237
      ],
      [
       -49.37952707018035,
       -20.81509069935009
      ],
      [
       -49.37872987795449,
       -20.81453300175626
      ],
      [
       -49.37795935680745,
       -20.81397527667102
      ],
      [
       -49.37723510385436,
       -20.81336388608845
      ],
      [
       -49.37654633882409,
       -20.812705848424695
      ],
      [
       -49.37626728587484,
       -20.812226161632616
      ],
      [
       -49.37599317947113,
       -20.811717769807757
      ],
      [
       -49.375885672677676,
       -20.81154541860053
      ],
      [
       -49.37569520202005,
       -20.811238901150602
      ],
      [
       -49.3755320496072,
       -20.810956861925842
      ],
      [
       -49.375358305860125,
       -20.81063378504634
      ],
      [
       -49.374831788897446,
       -20.80960275126349
      ],
      [
       -49.37473429897231,
       -20.80935217458001
      ]
     ],
     [
      [
       -49.38479578441802,
       -20.823031325635284
      ],
      [
       -49.384015840993996,
       -20.82170446754372
      ],
      [
       -49.3838233719535,
       -20.82137593156147
      ],
      [
       -49.38330608490268,
       -20.820551204206993
      ],
      [
       -49.382838547403075,
       -20.819695884485878
      ],
      [
       -49.382383108716525,
       -20.818894938994113
      ],
      [
       -49.381866520446486,
       -20.818099984162796
      ],
      [
       -49.38133279489056,
       -20.817271924178606
      ],
      [
       -49.38077663059156,
       -20.8164949888165
      ],
      [
       -49.38009168585606,
       -20.815865698289414
      ],
      [
       -49.37940318038011,
       -20.815211447444646
      ],
      [
       -49.37861482378259,
       -20.814639296733453
      ],
      [
       -49.377954785201744,
       -20.814159534366677
      ],
      [
       -49.37713866173592,
       -20.813466941721497
      ],
      [
       -49.37642595496476,
       -20.812812204392262
      ],
      [
       -49.37579948626779,
       -20.811670281749702
      ],
      [
       -49.375123568444145,
       -20.8103476075356
      ],
      [
       -49.374747343117875,
       -20.8095342802311
      ],
      [
       -49.37470054167348,
       -20.80937014667867
      ]
     ]
    ],
    "type": "MultiLineString"
   },
   "id": 4,
   "properties": {
    "COLOR": 0,
    "ELEVATION": 0,
    "FID_": 0,
    "LAYER": "4",
    "LINETYPE": " ",
    "LINEWT": 0,
    "OBJECTID": 4,
    "REFNAME": "Corredor",
    "SHAPE.LEN": 3747.41861565291,
    "SJRP.Corredores_de_Ônibus.ENTITY": " "
   },
   "type": "Feature"
  },
  {
   "geometry": {
    "coordinates": [
     [
      [
       -49.40249352787784,
       -20.82410020034402
      ],
      [
       -49.40191172416237,
       -20.823581000716473
      ],
      [
       -49.40112095377455,
       -20.822897238103806
      ],
      [
       -49.40083450748975,
       -20.82264022353182
      ],
      [
       -49.39947527062406,
       -20.82143369278999
      ],
      [
       -49.398831342384156,
       -20.8207497904924
      ],
      [
       -49.397799703643344,
       -20.819709215877523
      ],
      [
       -49.3971668750511,
       -20.819118807620754
      ],
      [
       -49.39628142527398,
       -20.818455396360314
      ],
      [
       -49.39589022715976,
       -20.81815273153766
      ],
      [
       -49.39554872262142,
       -20.81785487959485
      ],
      [
       -49.39504544826574,
       -20.817482188452185
      ],
      [
       -49.39450260666509,
       -20.817116427805193
      ],
      [
       -49.39401243993874,
       -20.8167906168468
      ],
      [
       -49.39362234084847,
       -20.816410216305897
      ],
      [
       -49.39329690315165,
       -20.816084487232686
      ],
      [
       -49.39273862089975,
       -20.815529604668384
      ],
      [
       -49.39188263598466,
       -20.814935205735807
      ],
      [
       -49.39102558332021,
       -20.81423324579898
      ],
      [
       -49.390450732582046,
       -20.813776213544912
      ],
      [
       -49.38974847313007,
       -20.813177503770984
      ],
      [
       -49.388890329024306,
       -20.812720025275045
      ],
      [
       -49.38792568401959,
       -20.81234416681028
      ],
      [
       -49.38715424301327,
       -20.811798943307593
      ],
      [
       -49.38624035596808,
       -20.811159585687175
      ],
      [
       -49.38557937124102,
       -20.810688545653036
      ],
      [
       -49.38479430524848,
       -20.810132607177017
      ],
      [
       -49.38383267118735,
       -20.809746082749687
      ],
      [
       -49.38303565129721,
       -20.80917798565712
      ],
      [
       -49.382275291856274,
       -20.808625170014878
      ],
      [
       -49.38147868611417,
       -20.80805898791074
      ],
      [
       -49.38046749410135,
       -20.807702010443904
      ],
      [
       -49.379705402796645,
       -20.807124613129314
      ]
     ],
     [
      [
       -49.37958942778923,
       -20.807227623280173
      ],
      [
       -49.380332466793,
       -20.807819413416446
      ],
      [
       -49.381338719467834,
       -20.808184748607033
      ],
      [
       -49.382156610445435,
       -20.808736424421895
      ],
      [
       -49.38292962766178,
       -20.809278558126707
      ],
      [
       -49.38373417950285,
       -20.80983439917684
      ],
      [
       -49.3846677046985,
       -20.81023390648521
      ],
      [
       -49.38546158939423,
       -20.810794497542584
      ],
      [
       -49.386243527891835,
       -20.81134380690537
      ],
      [
       -49.38703946580211,
       -20.811896011534238
      ],
      [
       -49.38781822516726,
       -20.81244687240316
      ],
      [
       -49.38797575080113,
       -20.812552746989354
      ],
      [
       -49.38815322459963,
       -20.8126720289989
      ],
      [
       -49.38829128221599,
       -20.81274072591011
      ],
      [
       -49.388368752103034,
       -20.81277013439742
      ],
      [
       -49.38848520042325,
       -20.812791305135953
      ],
      [
       -49.388734888347756,
       -20.81282192196473
      ],
      [
       -49.38964964406013,
       -20.813272970213365
      ],
      [
       -49.39028047816996,
       -20.813815252599362
      ],
      [
       -49.391017759972094,
       -20.814435346326725
      ],
      [
       -49.3918227619358,
       -20.815079371679325
      ],
      [
       -49.39251430711113,
       -20.815568556360496
      ],
      [
       -49.392624883625686,
       -20.815646775253395
      ],
      [
       -49.39297819565818,
       -20.815988277637466
      ],
      [
       -49.39350381595042,
       -20.81650547058803
      ],
      [
       -49.39382765572997,
       -20.81682662802572
      ],
      [
       -49.39450482125038,
       -20.81729362067684
      ],
      [
       -49.39534078839927,
       -20.817878788012816
      ],
      [
       -49.395482150442454,
       -20.81798669457506
      ],
      [
       -49.39579811870641,
       -20.818348030410245
      ],
      [
       -49.396064503729896,
       -20.818588373018194
      ],
      [
       -49.39626308639802,
       -20.81880761354043
      ],
      [
       -49.3967988785041,
       -20.819219249539046
      ],
      [
       -49.397275473975284,
       -20.819602106339346
      ],
      [
       -49.397678608756664,
       -20.819996774442384
      ],
      [
       -49.398426717787,
       -20.820762543593922
      ],
      [
       -49.3988491509467,
       -20.821217671600508
      ],
      [
       -49.3992527424376,
       -20.82163837610538
      ],
      [
       -49.40034471067817,
       -20.822609954206133
      ],
      [
       -49.40093936589849,
       -20.823127644512084
      ],
      [
       -49.40209540126303,
       -20.82412618627194
      ]
     ]
    ],
    "type": "MultiLineString"
   },
   "id": 5,
   "properties": {
    "COLOR": 0,
    "ELEVATION": 0,
    "FID_": 0,
    "LAYER": "5",
    "LINETYPE": " ",
    "LINEWT": 0,
    "OBJECTID": 5,
    "REFNAME": "Corredor",
    "SHAPE.LEN": 6073.18447953202,
    "SJRP.Corredores_de_Ônibus.ENTITY": " "
   },
   "type": "Feature"
  },
  {
   "geometry": {
    "coordinates": [
     [
      [
       -49.399222483729574,
       -20.809400374970167
      ],
      [
       -49.39981746650374,
       -20.808844059684912
      ],
      [
       -49.40049244705832,
       -20.808189812265432
      ],
      [
       -49.40116842785946,
       -20.807541095849384
      ],
      [
       -49.401872584315996,
       -20.806889938939516
      ],
      [
       -49.40250947543909,
       -20.806274439506467
      ],
      [
       -49.403232425732654,
       -20.80558630766066
      ],
      [
       -49.40388841423983,
       -20.804966546701095
      ],
      [
       -49.404243221304036,
       -20.804642325528075
      ],
      [
       -49.404767378076514,
       -20.80412828468606
      ],
      [
       -49.40493080942937,
       -20.80394118742444
      ],
      [
       -49.404975440272956,
       -20.803884635381024
      ]
     ],
     [
      [
       -49.40502061640607,
       -20.803896437353455
      ],
      [
       -49.40470763489817,
       -20.804263636499662
      ],
      [
       -49.40400713716505,
       -20.805006618121073
      ],
      [
       -49.402585786373805,
       -20.80634536997403
      ],
      [
       -49.40110656844586,
       -20.807751325182927
      ],
      [
       -49.399323700102585,
       -20.809439693735488
      ]
     ]
    ],
    "type": "MultiLineString"
   },
   "id": 6,
   "properties": {
    "COLOR": 0,
    "ELEVATION": 0,
    "FID_": 0,
    "LAYER": "6",
    "LINETYPE": " ",
    "LINEWT": 0,
    "OBJECTID": 6,
    "REFNAME": "Corredor",
    "SHAPE.LEN": 1709.3121836878802,
    "SJRP.Corredores_de_Ônibus.ENTITY": " "
   },
   "type": "Feature"
  },
  {
   "geometry": {
    "coordinates": [
     [
      [
       -49.39436049287568,
       -20.822914564958978
      ],
      [
       -49.3937052298937,
       -20.82228845166529
      ],
      [
       -49.39291092772631,
       -20.821529476198766
      ],
      [
       -49.39225241901904,
       -20.820899800940875
      ],
      [
       -49.39177289790462,
       -20.820465734001207
      ],
      [
       -49.39041331006961,
       -20.81916678598096
      ],
      [
       -49.38969304187717,
       -20.81848753514211
      ],
      [
       -49.38901921812627,
       -20.817852190120426
      ],
      [
       -49.38759161334966,
       -20.816522454503275
      ],
      [
       -49.38690425389859,
       -20.815884588139703
      ],
      [
       -49.38553129506187,
       -20.81460759268513
      ],
      [
       -49.384848473424604,
       -20.813955813566483
      ]
     ],
     [
      [
       -49.38487078767551,
       -20.815253811822668
      ],
      [
       -49.386227590098095,
       -20.81651349833715
      ],
      [
       -49.387635374728156,
       -20.817836333047733
      ],
      [
       -49.389029420650864,
       -20.819127750059483
      ],
      [
       -49.39113073838139,
       -20.82108486444483
      ],
      [
       -49.39143191892328,
       -20.82136197680764
      ],
      [
       -49.39168121208658,
       -20.82162115877645
      ],
      [
       -49.39183224024201,
       -20.821793401987723
      ],
      [
       -49.39199840727749,
       -20.821991937208665
      ],
      [
       -49.392228985721495,
       -20.82230360711724
      ],
      [
       -49.39269643762628,
       -20.822935452075495
      ]
     ]
    ],
    "type": "MultiLineString"
   },
   "id": 7,
   "properties": {
    "COLOR": 0,
    "ELEVATION": 0,
    "FID_": 0,
    "LAYER": "7",
    "LINETYPE": " ",
    "LINEWT": 0,
    "OBJECTID": 7,
    "REFNAME": "Corredor",
    "SHAPE.LEN": 2581.17630649162,
    "SJRP.Corredores_de_Ônibus.ENTITY": " "
   },
   "type": "Feature"
  },
  {
   "geometry": {
    "coordinates": [
     [
      [
       -49.39152918039811,
       -20.79596051706388
      ],
      [
       -49.39085006870061,
       -20.795308991011513
      ]
     ],
     [
      [
       -49.39085006870061,
       -20.795308991011513
      ],
      [
       -49.390849881492,
       -20.79530916178948
      ]
     ],
     [
      [
       -49.39085006870061,
       -20.795308991011513
      ],
      [
       -49.3877280847203,
       -20.79231372371008
      ],
      [
       -49.388153216838134,
       -20.79096517752487
      ],
      [
       -49.38881598267531,
       -20.78884132443101
      ],
      [
       -49.388784748309135,
       -20.788827627755392
      ],
      [
       -49.388762018030214,
       -20.788808574748067
      ],
      [
       -49.38873600785191,
       -20.788770209619102
      ],
      [
       -49.38872837807828,
       -20.788742613882423
      ],
      [
       -49.38873040458332,
       -20.78870807828176
      ],
      [
       -49.38874529955572,
       -20.788671210990746
      ],
      [
       -49.38876617051802,
       -20.788646347089283
      ],
      [
       -49.38878758561773,
       -20.788631301941535
      ],
      [
       -49.388847700713605,
       -20.788618084392194
      ],
      [
       -49.38890705023566,
       -20.788561974604118
      ],
      [
       -49.389540156936754,
       -20.787954763286812
      ],
      [
       -49.38976346355681,
       -20.787735632283482
      ],
      [
       -49.38988351104388,
       -20.78761668585658
      ],
      [
       -49.389968516611454,
       -20.787531117035773
      ],
      [
       -49.3900846616976,
       -20.78741038682017
      ],
      [
       -49.390170870450795,
       -20.787309618186832
      ],
      [
       -49.39024067595089,
       -20.787221955466105
      ],
      [
       -49.3903699501925,
       -20.787060667208536
      ],
      [
       -49.39048149551559,
       -20.786922267079806
      ],
      [
       -49.39055111316962,
       -20.786835888773503
      ],
      [
       -49.390624600424616,
       -20.78674755399752
      ],
      [
       -49.3908556835973,
       -20.786461333409985
      ],
      [
       -49.39119920289478,
       -20.786024866767526
      ],
      [
       -49.39128126851405,
       -20.785914008310453
      ],
      [
       -49.391354566116,
       -20.785800885209422
      ],
      [
       -49.39139656896569,
       -20.785734534418197
      ],
      [
       -49.39138487091422,
       -20.78571699794652
      ],
      [
       -49.391360579463914,
       -20.785650394380387
      ],
      [
       -49.39135668199058,
       -20.78559733030068
      ],
      [
       -49.39136106169177,
       -20.78555975171396
      ],
      [
       -49.39137360216067,
       -20.785515740292645
      ],
      [
       -49.391387214589244,
       -20.785487863165763
      ],
      [
       -49.39167634040418,
       -20.78518464816845
      ],
      [
       -49.391747399848136,
       -20.78512623058803
      ],
      [
       -49.39177299273464,
       -20.78510762895109
      ],
      [
       -49.39179630743339,
       -20.785095896485213
      ],
      [
       -49.39184090784477,
       -20.785084066257806
      ],
      [
       -49.39188701140316,
       -20.785080314937964
      ],
      [
       -49.39191754615144,
       -20.78508040228653
      ],
      [
       -49.391953627040536,
       -20.7850739645202
      ],
      [
       -49.39197149460687,
       -20.785066663268502
      ],
      [
       -49.39199672843313,
       -20.7850537536618
      ],
      [
       -49.39201690706886,
       -20.785038109317092
      ],
      [
       -49.392034769699364,
       -20.785018759535898
      ],
      [
       -49.39235212483786,
       -20.78459425611078
      ],
      [
       -49.39267720699115,
       -20.784167904781643
      ],
      [
       -49.39290332489421,
       -20.783884129393066
      ],
      [
       -49.392942792971205,
       -20.783852949562387
      ],
      [
       -49.39297146211845,
       -20.783833619542914
      ],
      [
       -49.393026292508445,
       -20.783805750556525
      ],
      [
       -49.39379986198417,
       -20.783488906708122
      ],
      [
       -49.39397763815046,
       -20.783430474026872
      ],
      [
       -49.39428448615031,
       -20.783363295812475
      ],
      [
       -49.39506526218089,
       -20.78320223413337
      ],
      [
       -49.39530002024247,
       -20.78314425330154
      ],
      [
       -49.39557203934628,
       -20.78307706960269
      ],
      [
       -49.39587009230461,
       -20.782981267641645
      ],
      [
       -49.39619667508081,
       -20.782871872947347
      ],
      [
       -49.39662478937058,
       -20.78268125537411
      ],
      [
       -49.39700288427261,
       -20.782518636852682
      ],
      [
       -49.39789935937001,
       -20.78199253404633
      ],
      [
       -49.3984404593839,
       -20.78168301758432
      ],
      [
       -49.39890712277441,
       -20.781443795328844
      ],
      [
       -49.39933769135917,
       -20.78121804515602
      ],
      [
       -49.39964786204544,
       -20.78105556211334
      ],
      [
       -49.40018159155864,
       -20.78076660021124
      ],
      [
       -49.40070733212143,
       -20.780491981844346
      ],
      [
       -49.400902081540586,
       -20.78027011337408
      ],
      [
       -49.401093264176986,
       -20.78002505835317
      ],
      [
       -49.40123686688183,
       -20.77984881325866
      ],
      [
       -49.40137977487203,
       -20.779679494558412
      ],
      [
       -49.40149213249752,
       -20.77958015807001
      ],
      [
       -49.40182743883703,
       -20.779327344804038
      ],
      [
       -49.402004409780496,
       -20.779194202730107
      ],
      [
       -49.40234626520411,
       -20.778918921315306
      ]
     ],
     [
      [
       -49.40252675970256,
       -20.779069235547322
      ],
      [
       -49.40240530538206,
       -20.779155314057117
      ],
      [
       -49.402309134478244,
       -20.779244948383134
      ],
      [
       -49.40198862933478,
       -20.779557932582975
      ],
      [
       -49.401539774031306,
       -20.77999502105768
      ],
      [
       -49.40134869761188,
       -20.780180975886843
      ],
      [
       -49.40115988554548,
       -20.780397404388182
      ],
      [
       -49.40088400192927,
       -20.780545434074995
      ],
      [
       -49.4003106038801,
       -20.780853097788153
      ],
      [
       -49.39973280646804,
       -20.781161840360536
      ],
      [
       -49.39878350614945,
       -20.78165675497716
      ],
      [
       -49.39806648514691,
       -20.78203176766943
      ],
      [
       -49.397610309839855,
       -20.782298358438283
      ],
      [
       -49.39708077739699,
       -20.782612070299702
      ],
      [
       -49.396327222723,
       -20.782935074003106
      ],
      [
       -49.395524610068286,
       -20.783208502100933
      ],
      [
       -49.39461402304194,
       -20.78340408182772
      ],
      [
       -49.39410876395046,
       -20.78351424172474
      ],
      [
       -49.39393400227919,
       -20.78356283125951
      ],
      [
       -49.393547180828975,
       -20.783705780627486
      ],
      [
       -49.39300892178855,
       -20.783948884292382
      ],
      [
       -49.39272938942904,
       -20.78428473107782
      ],
      [
       -49.392307614658655,
       -20.78485153373642
      ],
      [
       -49.39215430178681,
       -20.785098545780727
      ],
      [
       -49.39214886025899,
       -20.78519494946557
      ],
      [
       -49.39215020822155,
       -20.7852281103079
      ],
      [
       -49.39215375072193,
       -20.785319610922407
      ],
      [
       -49.39213268495466,
       -20.78539515602733
      ],
      [
       -49.39210000641113,
       -20.785446193679704
      ],
      [
       -49.39199390543521,
       -20.78555627909098
      ],
      [
       -49.39185120874601,
       -20.785699427203927
      ],
      [
       -49.39172869515488,
       -20.7857947664276
      ],
      [
       -49.39169453676803,
       -20.785810029514494
      ],
      [
       -49.39162558830528,
       -20.78582402171317
      ],
      [
       -49.39155668584452,
       -20.7858168107001
      ],
      [
       -49.391491897907876,
       -20.78580193922912
      ],
      [
       -49.39118733893065,
       -20.78618176417621
      ],
      [
       -49.390633096132554,
       -20.78687297187138
      ],
      [
       -49.39027019083211,
       -20.787326124792617
      ],
      [
       -49.39000259387983,
       -20.787617549177742
      ],
      [
       -49.38965951292348,
       -20.78795516421519
      ],
      [
       -49.38893977882787,
       -20.788661038913645
      ],
      [
       -49.3889535346305,
       -20.788681170220727
      ],
      [
       -49.38901951722617,
       -20.788729817239908
      ],
      [
       -49.3892583244111,
       -20.78888087143396
      ],
      [
       -49.38941464673494,
       -20.788954396269936
      ],
      [
       -49.38981955355855,
       -20.789162187681775
      ],
      [
       -49.38992173971431,
       -20.789232457144887
      ],
      [
       -49.39029885266216,
       -20.789559820066167
      ],
      [
       -49.39068265530829,
       -20.789900083840312
      ],
      [
       -49.391655543160155,
       -20.790742944547958
      ],
      [
       -49.392412641986795,
       -20.79138157535093
      ],
      [
       -49.39342122980648,
       -20.792235710561613
      ],
      [
       -49.39367454255594,
       -20.79245053557009
      ],
      [
       -49.39294080169992,
       -20.79320891107958
      ],
      [
       -49.39205610449072,
       -20.79417905610689
      ],
      [
       -49.39140905446091,
       -20.794798322332483
      ],
      [
       -49.39085006870061,
       -20.795308991011513
      ]
     ]
    ],
    "type": "MultiLineString"
   },
   "id": 8,
   "properties": {
    "COLOR": 0,
    "ELEVATION": 0,
    "FID_": 0,
    "LAYER": "8",
    "LINETYPE": " ",
    "LINEWT": 0,
    "OBJECTID": 8,
    "REFNAME": "Corredor",
    "SHAPE.LEN": 5753.63949407764,
    "SJRP.Corredores_de_Ônibus.ENTITY": " "
   },
   "type": "Feature"
  },
  {
   "geometry": {
    "coordinates": [
     [
      [
       -49.37470054167348,
       -20.80937014667867
      ],
      [
       -49.37465394322503,
       -20.80921710589767
      ],
      [
       -49.37473310908406,
       -20.80897253222304
      ],
      [
       -49.37483712486855,
       -20.808772848301903
      ],
      [
       -49.374939594498954,
       -20.808576133283676
      ],
      [
       -49.3750758710339,
       -20.808517483616573
      ],
      [
       -49.375262499571946,
       -20.808373071744
      ],
      [
       -49.37587116455922,
       -20.807797425335508
      ],
      [
       -49.37642287848462,
       -20.807275634757037
      ],
      [
       -49.37673462505935,
       -20.806969499547016
      ],
      [
       -49.37675608900335,
       -20.806878909887963
      ],
      [
       -49.376772371816905,
       -20.806388467843007
      ],
      [
       -49.37677410851583,
       -20.806336168944377
      ],
      [
       -49.37681722642316,
       -20.80628285977307
      ],
      [
       -49.37715540021726,
       -20.804716426274513
      ],
      [
       -49.37743589776745,
       -20.803417120039736
      ],
      [
       -49.37767565277435,
       -20.802263096718775
      ],
      [
       -49.377741818029264,
       -20.801788478638898
      ],
      [
       -49.37767424499561,
       -20.801096358734913
      ],
      [
       -49.37753548770405,
       -20.80057609110951
      ],
      [
       -49.37697299260286,
       -20.798579108078318
      ],
      [
       -49.37676958342452,
       -20.797964983783178
      ],
      [
       -49.376620095549534,
       -20.79753402940766
      ],
      [
       -49.376320715771335,
       -20.7966330771374
      ],
      [
       -49.37609923570736,
       -20.795701514122168
      ],
      [
       -49.37610195349924,
       -20.795373740131037
      ],
      [
       -49.37617780945349,
       -20.792406289526618
      ],
      [
       -49.376195639536625,
       -20.791737115548976
      ],
      [
       -49.37623162260043,
       -20.790341641298372
      ],
      [
       -49.37625631900134,
       -20.78939653992225
      ],
      [
       -49.37627945037848,
       -20.788846803225937
      ],
      [
       -49.37629471862505,
       -20.78690521370025
      ],
      [
       -49.3762657867178,
       -20.786656148309895
      ],
      [
       -49.376189764916475,
       -20.78652130680329
      ],
      [
       -49.37604135276191,
       -20.786445620373648
      ],
      [
       -49.376022397741295,
       -20.786354097903853
      ],
      [
       -49.37603079901738,
       -20.786267517961093
      ],
      [
       -49.37606844153676,
       -20.786211341118417
      ],
      [
       -49.3761320745115,
       -20.78616952355054
      ],
      [
       -49.37619543520412,
       -20.78615315516015
      ],
      [
       -49.376266059697386,
       -20.786107317994873
      ],
      [
       -49.37639926590004,
       -20.785838825927723
      ],
      [
       -49.37679779149394,
       -20.785371260363437
      ],
      [
       -49.37780247877963,
       -20.784295445093306
      ],
      [
       -49.378946277435425,
       -20.783393490809352
      ],
      [
       -49.37953309539195,
       -20.782940622475166
      ],
      [
       -49.37973691876763,
       -20.78278349429529
      ],
      [
       -49.379998674626115,
       -20.782572907857787
      ],
      [
       -49.38070613039664,
       -20.781978576991055
      ],
      [
       -49.3811512464622,
       -20.781522607872148
      ],
      [
       -49.38149699637167,
       -20.781146578148203
      ],
      [
       -49.381818041149096,
       -20.780796771981368
      ],
      [
       -49.38214251519741,
       -20.780382168202316
      ],
      [
       -49.38225150560308,
       -20.78015116846287
      ],
      [
       -49.382280445082564,
       -20.77998309363437
      ],
      [
       -49.38233354345439,
       -20.779626019631397
      ],
      [
       -49.38233202876014,
       -20.779447774622344
      ],
      [
       -49.38224861233664,
       -20.779059251585444
      ],
      [
       -49.38218256702363,
       -20.77889222290767
      ],
      [
       -49.38143090754554,
       -20.778072971554135
      ],
      [
       -49.38112501074552,
       -20.777778191550887
      ],
      [
       -49.38224561932313,
       -20.777125790872322
      ],
      [
       -49.382724129142666,
       -20.777591380869342
      ],
      [
       -49.38303271558987,
       -20.777836078310358
      ],
      [
       -49.383173822532946,
       -20.777890769760546
      ],
      [
       -49.38352594315846,
       -20.77793937139412
      ],
      [
       -49.38368963623239,
       -20.777913408300453
      ],
      [
       -49.385488644576,
       -20.777628060452557
      ],
      [
       -49.38652554622351,
       -20.77758184011938
      ],
      [
       -49.38937901948388,
       -20.777391318664996
      ],
      [
       -49.39089854282183,
       -20.77727532025223
      ],
      [
       -49.39263868552965,
       -20.777176897333774
      ],
      [
       -49.3933723668958,
       -20.777123550759743
      ],
      [
       -49.39467128642548,
       -20.777041531915334
      ],
      [
       -49.394965178165485,
       -20.776988827326946
      ],
      [
       -49.39524898915609,
       -20.776803615537634
      ],
      [
       -49.39572613853032,
       -20.77646293339291
      ],
      [
       -49.39618204275579,
       -20.77605657587052
      ],
      [
       -49.39663391216236,
       -20.775650879379963
      ],
      [
       -49.3971089448577,
       -20.775207795184212
      ]
     ],
     [
      [
       -49.37473429897231,
       -20.80935217458001
      ],
      [
       -49.37472188253842,
       -20.809208209973775
      ],
      [
       -49.37499350330528,
       -20.80887075696837
      ],
      [
       -49.375662309497464,
       -20.808301279223652
      ],
      [
       -49.37635014735372,
       -20.807657538598093
      ],
      [
       -49.376896504204026,
       -20.80713073736318
      ],
      [
       -49.3769657531896,
       -20.806995269008972
      ],
      [
       -49.37698591540908,
       -20.806839062124155
      ],
      [
       -49.376995850738915,
       -20.80653445170775
      ],
      [
       -49.37706891194364,
       -20.806237362558335
      ],
      [
       -49.37717896924822,
       -20.805789826239685
      ],
      [
       -49.37748766253941,
       -20.80454288552158
      ],
      [
       -49.377701628351126,
       -20.803819777825492
      ],
      [
       -49.37790117943517,
       -20.803148561490932
      ],
      [
       -49.37816328799724,
       -20.802240450733485
      ],
      [
       -49.37823338390431,
       -20.801976477038746
      ],
      [
       -49.37827273566692,
       -20.80175934570695
      ],
      [
       -49.37828152698211,
       -20.80156084351627
      ],
      [
       -49.37790434365187,
       -20.79997665037996
      ],
      [
       -49.37730392062115,
       -20.79778383703345
      ],
      [
       -49.377156445641994,
       -20.797145730767724
      ],
      [
       -49.37701187960915,
       -20.796367087318558
      ],
      [
       -49.376958194140194,
       -20.796045447008463
      ],
      [
       -49.376925956564335,
       -20.795606244609502
      ],
      [
       -49.37694242177497,
       -20.79430642469086
      ],
      [
       -49.37696294950863,
       -20.793058927703505
      ],
      [
       -49.37699583495932,
       -20.79089381661341
      ],
      [
       -49.37703773731415,
       -20.789140058330638
      ],
      [
       -49.37705842812943,
       -20.788126870977738
      ],
      [
       -49.377093019135025,
       -20.787196163784046
      ],
      [
       -49.377137245588656,
       -20.78657135473961
      ],
      [
       -49.377166968745655,
       -20.786242803132904
      ],
      [
       -49.37766029141753,
       -20.785771345136887
      ],
      [
       -49.37807317338014,
       -20.785376758091314
      ],
      [
       -49.37895849353391,
       -20.78453065519217
      ],
      [
       -49.37928196143119,
       -20.78423304578781
      ],
      [
       -49.37944062305615,
       -20.7841310356269
      ],
      [
       -49.37973608549854,
       -20.784017047888636
      ],
      [
       -49.38009866524323,
       -20.78390723764678
      ],
      [
       -49.38041381776723,
       -20.7838117907854
      ],
      [
       -49.38076364362718,
       -20.78372791759825
      ]
     ]
    ],
    "type": "MultiLineString"
   },
   "id": 9,
   "properties": {
    "COLOR": 0,
    "ELEVATION": 0,
    "FID_": 0,
    "LAYER": "9",
    "LINETYPE": " ",
    "LINEWT": 0,
    "OBJECTID": 9,
    "REFNAME": "Corredor",
    "SHAPE.LEN": 8907.422935944809,
    "SJRP.Corredores_de_Ônibus.ENTITY": " "
   },
   "type": "Feature"
  }
 ],
 "type": "FeatureCollection"
}