{
 "features": [
  {
   "geometry": {
    "coordinates": [
     -49.4032092988365,
     -20.78926258264145
    ],
    "type": "Point"
   },
   "id": 1,
   "properties": {
    "abrang": "ELDORADO",
    "abrangen_1": "ELDORADO",
    "class": "Atenção Básica",
    "cod_abrg": "03",
    "cod_abrg_1": "03",
    "dia": "Segunda a sexta-feira",
    "email": "sms.eldorado@riopreto.sp.gov.br",
    "endereco": "Avenida Nova Granada, 3320",
    "fid": 1,
    "fid_2": 4,
    "fid_3": 0,
    "gerente": "Paula Regina Martins",
    "globalid": "{36375E7E-1CA8-491E-A1A0-ACC3C8165918}",
    "globalid_2": "{BF16E0E6-80B7-4F9D-B99D-807342111818}",
    "globalid_3": "6014d888-00a7-4731-b38c-a2ee94535e72",
    "googlemaps": "https://www.google.com.br/maps/dir//-20.789262583572,-49.4032092988052/@-20.789262583572,-49.4032092988052z",
    "h_coleta": " ",
    "h_entrega": " ",
    "h_farmacia": "7h as 18h",
    "h_unidade": "Das 07h00 às 20h00",
    "h_vacina": "7h as 19:30h",
    "lat": "-20,789262583572",
    "lon": "-49,4032092988052",
    "nome": "UBS ELDORADO",
    "objectid_1": 11,
    "objectid_2": 3,
    "regiao": "Cidade da Criança",
    "regiao_2": "Cidade da Crian",
    "shape_ar_1": 3126779.11,
    "shape_le_1": 8378.81,
    "site": "http://saude.riopreto.sp.gov.br/transparencia/modules/mastop_publish/?tac=USDSII_UBS_Eldo",
    "telefone": "3236-3463",
    "tipo": "UBS"
   },
   "type": "Feature"
  },
  {
   "geometry": {
    "coordinates": [
     -49.40713934915283,
     -20.80747339469546
    ],
    "type": "Point"
   },
   "id": 2,
   "properties": {
    "abrang": "PARQUE INDUSTRIAL",
    "abrangen_1": "PARQUE INDUSTRIAL",
    "class": "Urgência e Emergência",
    "cod_abrg": "08",
    "cod_abrg_1": "08",
    "dia": "Todos os dias",
    "email": "samu@riopreto.sp.gov.br",
    "endereco": "Rua Chede Scaff com a Rua Pedro Goes",
    "fid": 2,
    "fid_2": 11,
    "fid_3": 1,
    "gerente": "Janaina Danielle De Andrade",
    "globalid": "{4246DB5F-B988-4E74-B0CA-CDE360A6599B}",
    "globalid_2": "{CA5A509B-062A-4FE8-B2BF-88821D2D7132}",
    "globalid_3": "054fa743-4c29-4ea3-a59e-0a609b22d42a",
    "googlemaps": "https://www.google.com.br/maps/dir//-20.807473395739,-49.4071393494498/@-20.807473395739,-49.4071393494498z",
    "h_coleta": " ",
    "h_entrega": " ",
    "h_farmacia": "Não se aplica",
    "h_unidade": "24 Horas",
    "h_vacina": "Não se aplica",
    "lat": "-20,807473395739",
    "lon": "-49,4071393494498",
    "nome": "SAMU",
    "objectid_1": 15,
    "objectid_2": 8,
    "regiao": "Central",
    "regiao_2": "Central",
    "shape_ar_1": 8152800.67,
    "shape_le_1": 13894.62,
    "site": "http://saude.riopreto.sp.gov.br/transparencia/modules/mastop_publish/?tac=US_SAMU",
    "telefone": "192",
    "tipo": "SAMU"
   },
   "type": "Feature"
  },
  {
   "geometry": {
    "coordinates": [
     -49.38654618901828,
     -20.79789904811499
    ],
    "type": "Point"
   },
   "id": 3,
   "properties": {
    "abrang": "PARQUE INDUSTRIAL",
    "abrangen_1": "PARQUE INDUSTRIAL",
    "class": "Atenção Básica",
    "cod_abrg": "08",
    "cod_abrg_1": "08",
    "dia": "Segunda a sexta-feira",
    "email": "sms.industrial@riopreto.sp.gov.br",
    "endereco": "Rua Expedicionarios, 1541",
    "fid": 3,
    "fid_2": 11,
    "fid_3": 1,
    "gerente": "Evandro Scarso De Brito",
    "globalid": "{B1F85AA8-20DF-44DE-BCD9-8FD29A6CB5B7}",
    "globalid_2": "{CA5A509B-062A-4FE8-B2BF-88821D2D7132}",
    "globalid_3": "2b28cd90-c457-4ee5-a970-e69777182093",
    "googlemaps": "https://www.google.com.br/maps/dir//-20.797899049102,-49.386546189368/@-20.797899049102,-49.386546189368z",
    "h_coleta": " ",
    "h_entrega": " ",
    "h_farmacia": "7h as 17h",
    "h_unidade": "Das 07h00 às 20h00",
    "h_vacina": "7h as 19:30h",
    "lat": "-20,797899049102",
    "lon": "-49,386546189368",
    "nome": "UBS PARQUE INDUSTRIAL",
    "objectid_1": 15,
    "objectid_2": 8,
    "regiao": "Central",
    "regiao_2": "Central",
    "shape_ar_1": 8152800.67,
    "shape_le_1": 13894.62,
    "site": "http://saude.riopreto.sp.gov.br/transparencia/modules/mastop_publish/?tac=USDSI_UBS_Parq_Indu",
    "telefone": "3233-2489",
    "tipo": "UBS"
   },
   "type": "Feature"
  },
  {
   "geometry": {
    "coordinates": [
     -49.379524593838184,
     -20.79666679793939
    ],
    "type": "Point"
   },
   "id": 4,
   "properties": {
    "abrang": "PARQUE INDUSTRIAL",
    "abrangen_1": "PARQUE INDUSTRIAL",
    "class": "Atenção Especializada",
    "cod_abrg": "08",
    "cod_abrg_1": "08",
    "dia": "COMPLEXO DCT",
    "email": "sms.gerenciacomplexodct@riopreto.sp.gov.br",
    "endereco": "Rua Ipiranga, 291",
    "fid": 4,
    "fid_2": 11,
    "fid_3": 1,
    "gerente": "Aracelis De Castro Achcar",
    "globalid": "{99EC8196-2D7D-4256-8988-61197FBFF17D}",
    "globalid_2": "{CA5A509B-062A-4FE8-B2BF-88821D2D7132}",
    "globalid_3": "19cc8902-f510-43a2-8aa2-11a6dbb45f91",
    "googlemaps": "https://www.google.com.br/maps/dir//-20.7966667985933,-49.379524593725/@-20.7966667985933,-49.379524593725z",
    "h_coleta": " ",
    "h_entrega": "1",
    "h_farmacia": " ",
    "h_unidade": "Das 07h00 às 17h00",
    "h_vacina": " ",
    "lat": "-20,7966667985933",
    "lon": "-49,379524593725",
    "nome": "UNIDADE DE PREVENÇÃO E DIAGNÓSTICO DE DOENÇAS CRÔNICAS TRANSMISSÍVEIS",
    "objectid_1": 15,
    "objectid_2": 8,
    "regiao": "Central",
    "regiao_2": "Central",
    "shape_ar_1": 8152800.67,
    "shape_le_1": 13894.62,
    "site": "http://saude.riopreto.sp.gov.br/transparencia/modules/mastop_publish/?tac=USDSI_Comp_Doen_Tran",
    "telefone": "3222-4403",
    "tipo": "COMPLEXO DCT"
   },
   "type": "Feature"
  },
  {
   "geometry": {
    "coordinates": [
     -49.379291465750626,
     -20.796871421079803
    ],
    "type": "Point"
   },
   "id": 5,
   "properties": {
    "abrang": "PARQUE INDUSTRIAL",
    "abrangen_1": "PARQUE INDUSTRIAL",
    "class": "Atenção Especializada",
    "cod_abrg": "08",
    "cod_abrg_1": "08",
    "dia": "DST/AIDS",
    "email": "sms.gerenciacomplexodct@riopreto.sp.gov.br",
    "endereco": "Rua Do Rosario, 1903",
    "fid": 5,
    "fid_2": 11,
    "fid_3": 1,
    "gerente": "Camila de Carvalho Silva Ishizava",
    "globalid": "{97E628A4-2D39-494A-8921-E17748CBA847}",
    "globalid_2": "{CA5A509B-062A-4FE8-B2BF-88821D2D7132}",
    "globalid_3": "92730863-1df5-46e3-98ce-2637efbd83f4",
    "googlemaps": "https://www.google.com.br/maps/dir//-20.7968714219664,-49.3792914659048/@-20.7968714219664,-49.3792914659048z",
    "h_coleta": " ",
    "h_entrega": "2",
    "h_farmacia": " ",
    "h_unidade": "Das 07h00 às 17h00",
    "h_vacina": " ",
    "lat": "-20,7968714219664",
    "lon": "-49,3792914659048",
    "nome": "AMBULATÓRIO DE DOENÇAS CRÔNICAS TRANSMISSÍVEIS",
    "objectid_1": 15,
    "objectid_2": 8,
    "regiao": "Central",
    "regiao_2": "Central",
    "shape_ar_1": 8152800.67,
    "shape_le_1": 13894.62,
    "site": "http://saude.riopreto.sp.gov.br/transparencia/modules/mastop_publish/?tac=USDSI_Comp_Doen_Tran",
    "telefone": "3211-1410",
    "tipo": "DST/AIDS"
   },
   "type": "Feature"
  },
  {
   "geometry": {
    "coordinates": [
     -49.37764161361158,
     -20.797877822676785
    ],
    "type": "Point"
   },
   "id": 6,
   "properties": {
    "abrang": "PARQUE INDUSTRIAL",
    "abrangen_1": "PARQUE INDUSTRIAL",
    "class": "Atenção Especializada",
    "cod_abrg": "08",
    "cod_abrg_1": "08",
    "dia": "LABORATÓRIO",
    "email": "sms.laboratorio@riopreto.sp.gov.br",
    "endereco": "Avenida Philadelpho Gouveia Neto, 2030",
    "fid": 6,
    "fid_2": 11,
    "fid_3": 1,
    "gerente": "Fabiana Rodrigues Costa",
    "globalid": "{A5DB2E62-7EF0-4304-9A2A-062325A0BEC6}",
    "globalid_2": "{CA5A509B-062A-4FE8-B2BF-88821D2D7132}",
    "globalid_3": "1271be6c-3d3e-4f0c-bae3-98c6c0e26ce0",
    "googlemaps": "https://www.google.com.br/maps/dir//-20.7978778235268,-49.3776416133015/@-20.7978778235268,-49.3776416133015z",
    "h_coleta": " ",
    "h_entrega": "3",
    "h_farmacia": " ",
    "h_unidade": "Segunda a sexta: das 07h00 às 17h00; Sábado: das 07h00 às 13h00",
    "h_vacina": " ",
    "lat": "-20,7978778235268",
    "lon": "-49,3776416133015",
    "nome": "LABORATÓRIO MUNICIPAL DE PATOLOGIA CLÍNICA",
    "objectid_1": 15,
    "objectid_2": 8,
    "regiao": "Central",
    "regiao_2": "Central",
    "shape_ar_1": 8152800.67,
    "shape_le_1": 13894.62,
    "site": " ",
    "telefone": "3226-7382",
    "tipo": "Laboratório"
   },
   "type": "Feature"
  },
  {
   "geometry": {
    "coordinates": [
     -49.37740397238801,
     -20.797140921478004
    ],
    "type": "Point"
   },
   "id": 7,
   "properties": {
    "abrang": "PARQUE INDUSTRIAL",
    "abrangen_1": "PARQUE INDUSTRIAL",
    "class": "Atenção Especializada",
    "cod_abrg": "08",
    "cod_abrg_1": "08",
    "dia": "CENTRO DA MULHER",
    "email": "sms.cesmulher@riopreto.sp.gov.br",
    "endereco": "Avenida Philadelpho Manoel Gouveia Netto, 1960",
    "fid": 7,
    "fid_2": 11,
    "fid_3": 1,
    "gerente": "Fabiola Valerio Severino Pereira",
    "globalid": "{9050E074-AB1F-4752-A1F9-C74DCA4440E1}",
    "globalid_2": "{CA5A509B-062A-4FE8-B2BF-88821D2D7132}",
    "globalid_3": "8a9d1899-d68f-46d6-a04e-f607ab520eb9",
    "googlemaps": "https://www.google.com.br/maps/dir//-20.797140922042,-49.3774039725423/@-20.797140922042,-49.3774039725423z",
    "h_coleta": " ",
    "h_entrega": "4",
    "h_farmacia": " ",
    "h_unidade": "Das 07h00 às 17h00",
    "h_vacina": " ",
    "lat": "-20,797140922042",
    "lon": "-49,3774039725423",
    "nome": "CENTRO DE ATENDIMENTO ESPECIALIZADO NA SAÚDE DA MULHER - CAESM",
    "objectid_1": 15,
    "objectid_2": 8,
    "regiao": "Central",
    "regiao_2": "Central",
    "shape_ar_1": 8152800.67,
    "shape_le_1": 13894.62,
    "site": "http://saude.riopreto.sp.gov.br/transparencia/modules/mastop_publish/?tac=USDSI_CAESM",
    "telefone": "3215-1847",
    "tipo": "CENTRO DA MULHER"
   },
   "type": "Feature"
  },
  {
   "geometry": {
    "coordinates": [
     -49.39231274971153,
     -20.81100515346154
    ],
    "type": "Point"
   },
   "id": 8,
   "properties": {
    "abrang": "PARQUE INDUSTRIAL",
    "abrangen_1": "PARQUE INDUSTRIAL",
    "class": "Atenção Especializada",
    "cod_abrg": "08",
    "cod_abrg_1": "08",
    "dia": "BANCO DE LEITE",
    "email": "sms.bancodeleite@riopreto.sp.gov.br",
    "endereco": "Avenida Dos Estudantes, 1886",
    "fid": 8,
    "fid_2": 11,
    "fid_3": 1,
    "gerente": "Priscila Celina Bonomo Theodoro",
    "globalid": "{70820FB8-61C8-442F-B71A-E5AF5106BEB9}",
    "globalid_2": "{CA5A509B-062A-4FE8-B2BF-88821D2D7132}",
    "globalid_3": "e12a0c7f-b8f0-4906-9ed4-15f60b38e51e",
    "googlemaps": "https://www.google.com.br/maps/dir//-20.8110051541155,-49.3923127494121/@-20.8110051541155,-49.3923127494121z",
    "h_coleta": " ",
    "h_entrega": "5",
    "h_farmacia": " ",
    "h_unidade": "Das 07h00 às 17h00",
    "h_vacina": " ",
    "lat": "-20,8110051541155",
    "lon": "-49,3923127494121",
    "nome": "BANCO DE LEITE HUMANO",
    "objectid_1": 15,
    "objectid_2": 8,
    "regiao": "Central",
    "regiao_2": "Central",
    "shape_ar_1": 8152800.67,
    "shape_le_1": 13894.62,
    "site": "http://saude.riopreto.sp.gov.br/transparencia/modules/mastop_publish/?tac=USDSI_Banc_Leit_Huma",
    "telefone": "3214-3422",
    "tipo": "BANCO DE LEITE"
   },
   "type": "Feature"
  },
  {
   "geometry": {
    "coordinates": [
     -49.377663470520794,
     -20.798087660880725
    ],
    "type": "Point"
   },
   "id": 9,
   "properties": {
    "abrang": "PARQUE INDUSTRIAL",
    "abrangen_1": "PARQUE INDUSTRIAL",
    "class": "Atenção Especializada",
    "cod_abrg": "08",
    "cod_abrg_1": "08",
    "dia": "HOSPITAL",
    "email": "sms.hospitaldia@riopreto.sp.gov.br",
    "endereco": "Avenida Philadelpho Manoel Gouveia Netto, 2050",
    "fid": 9,
    "fid_2": 11,
    "fid_3": 1,
    "gerente": "Ana Cristina De Lima Pereira",
    "globalid": "{74732168-76AF-4870-B573-3077D49367CB}",
    "globalid_2": "{CA5A509B-062A-4FE8-B2BF-88821D2D7132}",
    "globalid_3": "efe9ef56-f6a8-47ce-9763-aba36a772e68",
    "googlemaps": "https://www.google.com.br/maps/dir//-20.7980876612808,-49.3776634701329/@-20.7980876612808,-49.3776634701329z",
    "h_coleta": " ",
    "h_entrega": "6",
    "h_farmacia": " ",
    "h_unidade": "Das 07h00 às 17h00",
    "h_vacina": " ",
    "lat": "-20,7980876612808",
    "lon": "-49,3776634701329",
    "nome": "CENTRO DIAGNÓSTICO E HOSPITAL DIA",
    "objectid_1": 15,
    "objectid_2": 8,
    "regiao": "Central",
    "regiao_2": "Central",
    "shape_ar_1": 8152800.67,
    "shape_le_1": 13894.62,
    "site": "http://saude.riopreto.sp.gov.br/transparencia/modules/mastop_publish/?tac=USDSI_Hosp_DIA",
    "telefone": "3215-1576",
    "tipo": "HOSPITAL DIA"
   },
   "type": "Feature"
  },
  {
   "geometry": {
    "coordinates": [
     -49.377567679568756,
     -20.79777605222266
    ],
    "type": "Point"
   },
   "id": 10,
   "properties": {
    "abrang": "PARQUE INDUSTRIAL",
    "abrangen_1": "PARQUE INDUSTRIAL",
    "class": "Atenção Especializada",
    "cod_abrg": "08",
    "cod_abrg_1": "08",
    "dia": "CAE",
    "email": "sms.cae@riopreto.sp.gov.br",
    "endereco": "Avenida Philadelpho Manoel Gouveia Netto, 2000",
    "fid": 10,
    "fid_2": 11,
    "fid_3": 1,
    "gerente": "Vanessa Costa Rabelo",
    "globalid": "{204265B8-8A2D-46D9-A6E9-5ACA99738501}",
    "globalid_2": "{CA5A509B-062A-4FE8-B2BF-88821D2D7132}",
    "globalid_3": "b935ba93-0847-4218-b886-5ecb0a2cfd74",
    "googlemaps": "https://www.google.com.br/maps/dir//-20.7977760525843,-49.377567679314/@-20.7977760525843,-49.377567679314z",
    "h_coleta": " ",
    "h_entrega": "7",
    "h_farmacia": " ",
    "h_unidade": "Das 07h00 às 19h00",
    "h_vacina": " ",
    "lat": "-20,7977760525843",
    "lon": "-49,377567679314",
    "nome": "CENTRO DE ATENDIMENTO ESPECIALIZADO - CAE",
    "objectid_1": 15,
    "objectid_2": 8,
    "regiao": "Central",
    "regiao_2": "Central",
    "shape_ar_1": 8152800.67,
    "shape_le_1": 13894.62,
    "site": "http://saude.riopreto.sp.gov.br/transparencia/modules/mastop_publish/?tac=USDSI_CER_II",
    "telefone": "3212-7290",
    "tipo": "CAE"
   },
   "type": "Feature"
  },
  {
   "geometry": {
    "coordinates": [
     -49.3775579166783,
     -20.797630307393725
    ],
    "type": "Point"
   },
   "id": 11,
   "properties": {
    "abrang": "PARQUE INDUSTRIAL",
    "abrangen_1": "PARQUE INDUSTRIAL",
    "class": "Atenção Especializada",
    "cod_abrg": "08",
    "cod_abrg_1": "08",
    "dia": "SAD",
    "email": "sms.sade@riopreto.sp.gov.br",
    "endereco": "Avenida Philadelpho Gouveia Neto, 2000",
    "fid": 11,
    "fid_2": 11,
    "fid_3": 1,
    "gerente": "Andreia Aparecida Silveira Maloni",
    "globalid": "{A1439AC0-C994-4AB9-84F7-47C99CA2176B}",
    "globalid_2": "{CA5A509B-062A-4FE8-B2BF-88821D2D7132}",
    "globalid_3": "e7d981fd-5936-4b98-ab9e-7532d90951d1",
    "googlemaps": "https://www.google.com.br/maps/dir//-20.7976303081796,-49.3775579162326/@-20.7976303081796,-49.3775579162326z",
    "h_coleta": " ",
    "h_entrega": "8",
    "h_farmacia": " ",
    "h_unidade": "Das 07h00 às 19h00",
    "h_vacina": " ",
    "lat": "-20,7976303081796",
    "lon": "-49,3775579162326",
    "nome": "SERVIÇO DE ATENÇÃO DOMICILIAR - SAD",
    "objectid_1": 15,
    "objectid_2": 8,
    "regiao": "Central",
    "regiao_2": "Central",
    "shape_ar_1": 8152800.67,
    "shape_le_1": 13894.62,
    "site": "http://saude.riopreto.sp.gov.br/transparencia/modules/mastop_publish/?tac=USDSI_SAD",
    "telefone": "3212-7290",
    "tipo": "SAD"
   },
   "type": "Feature"
  },
  {
   "geometry": {
    "coordinates": [
     -49.383466569289865,
     -20.839545509533277
    ],
    "type": "Point"
   },
   "id": 12,
   "properties": {
    "abrang": "ESTORIL",
    "abrangen_1": "ESTORIL",
    "class": "Atenção Básica",
    "cod_abrg": "13",
    "cod_abrg_1": "13",
    "dia": "Todos os dias",
    "email": "sms.estoril@riopreto.sp.gov.br",
    "endereco": "Rua Caetano Elzo Rogerio, 1800",
    "fid": 12,
    "fid_2": 2,
    "fid_3": 2,
    "gerente": "Helaine Cristina Carvalho Lourenço",
    "globalid": "{982D0794-3D4A-47C4-86EE-C40E50C369F4}",
    "globalid_2": "{F1D8F908-D2FC-42ED-951B-D9CBF4FB60DA}",
    "globalid_3": "9e570a79-7a75-451c-8a6c-7922a2e19d9f",
    "googlemaps": "https://www.google.com.br/maps/dir//-20.8358605573943,-49.3773457686031/@-20.8358605573943,-49.3773457686031z",
    "h_coleta": " ",
    "h_entrega": " ",
    "h_farmacia": "7h as 17h",
    "h_unidade": "Das 07h00 às 22h00",
    "h_vacina": "7h as 16:30h",
    "lat": "-20,8358605573943",
    "lon": "-49,3773457686031",
    "nome": "CSE PARQUE ESTORIL",
    "objectid_1": 8,
    "objectid_2": 13,
    "regiao": "HB",
    "regiao_2": "HB",
    "shape_ar_1": 6411296.75,
    "shape_le_1": 13891.53,
    "site": "http://saude.riopreto.sp.gov.br/transparencia/modules/mastop_publish/?tac=USDSIII_CSE_Parq_Esto",
    "telefone": "3226-3033",
    "tipo": "UBS"
   },
   "type": "Feature"
  },
  {
   "geometry": {
    "coordinates": [
     -49.39958647773728,
     -20.831263539575602
    ],
    "type": "Point"
   },
   "id": 13,
   "properties": {
    "abrang": "ESTORIL",
    "abrangen_1": "ESTORIL",
    "class": "Atenção Especializada",
    "cod_abrg": "13",
    "cod_abrg_1": "13",
    "dia": "CAPS",
    "email": "sms.capsi.higienopolis@riopreto.sp.gov.br",
    "endereco": "Rua Francisco Giglioti, 344",
    "fid": 13,
    "fid_2": 2,
    "fid_3": 2,
    "gerente": "Nagila Batista Lucio Santos",
    "globalid": "{5343E676-63C5-4745-8146-350B71BC9641}",
    "globalid_2": "{F1D8F908-D2FC-42ED-951B-D9CBF4FB60DA}",
    "globalid_3": "60ad8df3-8ff6-47ec-b8b6-6bcf2f8a067a",
    "googlemaps": "https://www.google.com.br/maps/dir//-20.8312635405307,-49.3995864773187/@-20.8312635405307,-49.3995864773187z",
    "h_coleta": " ",
    "h_entrega": "9",
    "h_farmacia": " ",
    "h_unidade": "Das 08h00 às 18h00",
    "h_vacina": " ",
    "lat": "-20,8312635405307",
    "lon": "-49,3995864773187",
    "nome": "CAPS INFANTIL SUL",
    "objectid_1": 8,
    "objectid_2": 13,
    "regiao": "HB",
    "regiao_2": "HB",
    "shape_ar_1": 6411296.75,
    "shape_le_1": 13891.53,
    "site": "http://saude.riopreto.sp.gov.br/transparencia/modules/mastop_publish/?tac=USDSIII_CAPS_Cria",
    "telefone": "3227-1292",
    "tipo": "CAPS INFANTIL SUL"
   },
   "type": "Feature"
  },
  {
   "geometry": {
    "coordinates": [
     -49.376034521280104,
     -20.787373129229852
    ],
    "type": "Point"
   },
   "id": 14,
   "properties": {
    "abrang": "ESTORIL",
    "abrangen_1": "ESTORIL",
    "class": "Atenção Especializada",
    "cod_abrg": "13",
    "cod_abrg_1": "13",
    "dia": "CAPS",
    "email": "sms.caps2centro@riopreto.sp.gov.br",
    "endereco": "Avenida Philadelpho Manoel Gouveia Netto, 805",
    "fid": 14,
    "fid_2": 2,
    "fid_3": 2,
    "gerente": "Debora Maria Salimon Pinto",
    "globalid": "{619C9615-D602-4DC2-A449-217A500AC544}",
    "globalid_2": "{F1D8F908-D2FC-42ED-951B-D9CBF4FB60DA}",
    "globalid_3": "3850e818-4fb0-4af7-8c00-ed885bb6da01",
    "googlemaps": "https://www.google.com.br/maps/dir//-20.8263015345291,-49.3891041945273/@-20.8263015345291,-49.3891041945273z",
    "h_coleta": " ",
    "h_entrega": "10",
    "h_farmacia": " ",
    "h_unidade": "Das 07h00 às 17h00",
    "h_vacina": " ",
    "lat": "-20,7873731294456",
    "lon": "-49,3760345215053",
    "nome": "CAPS II ADULTO CENTRO",
    "objectid_1": 8,
    "objectid_2": 13,
    "regiao": "HB",
    "regiao_2": "HB",
    "shape_ar_1": 6411296.75,
    "shape_le_1": 13891.53,
    "site": "http://saude.riopreto.sp.gov.br/transparencia/modules/mastop_publish/?tac=USDSI_CAPS_II_Cent",
    "telefone": "3223-4898",
    "tipo": "CAPS II ADULTO CENTRO"
   },
   "type": "Feature"
  },
  {
   "geometry": {
    "coordinates": [
     -49.382576999105055,
     -20.825828565631454
    ],
    "type": "Point"
   },
   "id": 15,
   "properties": {
    "abrang": "ESTORIL",
    "abrangen_1": "ESTORIL",
    "class": " ",
    "cod_abrg": "13",
    "cod_abrg_1": "13",
    "dia": "Segunda a sexta-feira",
    "email": "sms.saude@riopreto.sp.gov.br",
    "endereco": "Avenida Romeu Strazzi, 199",
    "fid": 15,
    "fid_2": 2,
    "fid_3": 2,
    "gerente": "Aldenis Borim",
    "globalid": "{6B5D72B4-4D27-4117-9B32-BE6C2E73498A}",
    "globalid_2": "{F1D8F908-D2FC-42ED-951B-D9CBF4FB60DA}",
    "globalid_3": "2bfecb9a-ca84-456b-afdf-c0756c6f6baa",
    "googlemaps": "https://www.google.com.br/maps/dir//-20.8258285666,-49.382576999336/@-20.8258285666,-49.382576999336z",
    "h_coleta": " ",
    "h_entrega": " ",
    "h_farmacia": " ",
    "h_unidade": "Das 08h00 às 17h00",
    "h_vacina": " ",
    "lat": "-20,8258285666",
    "lon": "-49,382576999336",
    "nome": "SECRETARIA MUNICIPAL DE SAÚDE",
    "objectid_1": 8,
    "objectid_2": 13,
    "regiao": "HB",
    "regiao_2": "HB",
    "shape_ar_1": 6411296.75,
    "shape_le_1": 13891.53,
    "site": "http://gestao.saude.riopreto.sp.gov.br/transparencia/",
    "telefone": "3216-9766",
    "tipo": "Executivo"
   },
   "type": "Feature"
  },
  {
   "geometry": {
    "coordinates": [
     -49.38686090209997,
     -20.826601874424274
    ],
    "type": "Point"
   },
   "id": 16,
   "properties": {
    "abrang": "ESTORIL",
    "abrangen_1": "ESTORIL",
    "class": "Atenção Especializada",
    "cod_abrg": "13",
    "cod_abrg_1": "13",
    "dia": "CME",
    "email": "sms.cme@riopreto.sp.gov.br",
    "endereco": "Avenida José Munia, 4775 - 1º Andar, Plaza Avenida Shopping",
    "fid": 16,
    "fid_2": 2,
    "fid_3": 2,
    "gerente": "Lucia Miani Gonçalves",
    "globalid": "{9A46A7AA-64F8-41FE-97A2-09CEBBCF1955}",
    "globalid_2": "{F1D8F908-D2FC-42ED-951B-D9CBF4FB60DA}",
    "globalid_3": "5b2d36c7-e0bc-4fae-ab49-6c9e100df71f",
    "googlemaps": "https://www.google.com.br/maps/dir//-20.8266018751886,-49.3868609019394/@-20.8266018751886,-49.3868609019394z",
    "h_coleta": " ",
    "h_entrega": "11",
    "h_farmacia": "Não se aplica",
    "h_unidade": "Segunda a sexta: das 07h00 às 19h00; Sábado: das 07h00 às 13h00",
    "h_vacina": "Não se aplica",
    "lat": "-20,8266018751886",
    "lon": "-49,3868609019394",
    "nome": "CENTRO MÉDICO DE ESPECIALIDADES",
    "objectid_1": 8,
    "objectid_2": 13,
    "regiao": "HB",
    "regiao_2": "HB",
    "shape_ar_1": 6411296.75,
    "shape_le_1": 13891.53,
    "site": "http://saude.riopreto.sp.gov.br/transparencia/modules/mastop_publish/?tac=USDSIII_CME",
    "telefone": "3215-8222",
    "tipo": "CME"
   },
   "type": "Feature"
  },
  {
   "geometry": {
    "coordinates": [
     -49.38045872135945,
     -20.825597102023195
    ],
    "type": "Point"
   },
   "id": 17,
   "properties": {
    "abrang": "ESTORIL",
    "abrangen_1": "ESTORIL",
    "class": "Atenção Especializada",
    "cod_abrg": "13",
    "cod_abrg_1": "13",
    "dia": "CAPS",
    "email": "sms.caps.bomjardim@riopreto.sp.gov.br",
    "endereco": "Rua Jose Polachini Sobrinho ,575",
    "fid": 17,
    "fid_2": 2,
    "fid_3": 2,
    "gerente": "Fabio Rodrigo da Silva",
    "globalid": "{754213A3-F5BA-4A22-BC32-13DB4DA2D3C7}",
    "globalid_2": "{F1D8F908-D2FC-42ED-951B-D9CBF4FB60DA}",
    "globalid_3": "82556dd1-10ed-4c11-8eb2-8316953894dd",
    "googlemaps": "https://www.google.com.br/maps/dir//-20.8255971023186,-49.3804587217186/@-20.8255971023186,-49.3804587217186z",
    "h_coleta": " ",
    "h_entrega": "12",
    "h_farmacia": " ",
    "h_unidade": "Das 08h00 às 18h00",
    "h_vacina": " ",
    "lat": "-20,8255971023186",
    "lon": "-49,3804587217186",
    "nome": "CAPS II ADULTO SUL",
    "objectid_1": 8,
    "objectid_2": 13,
    "regiao": "HB",
    "regiao_2": "HB",
    "shape_ar_1": 6411296.75,
    "shape_le_1": 13891.53,
    "site": "http://saude.riopreto.sp.gov.br/transparencia/modules/mastop_publish/?tac=USDSIII_CAPS_II_Adul",
    "telefone": "3227-6753",
    "tipo": "CAPS II ADULTO SUL"
   },
   "type": "Feature"
  },
  {
   "geometry": {
    "coordinates": [
     -49.37282509678983,
     -20.785687017260756
    ],
    "type": "Point"
   },
   "id": 18,
   "properties": {
    "abrang": "ANCHIETA",
    "abrangen_1": "ANCHIETA",
    "class": "Atenção Básica",
    "cod_abrg": "07",
    "cod_abrg_1": "07",
    "dia": "Segunda a sexta-feira",
    "email": "sms.anchieta@riopreto.sp.gov.br",
    "endereco": "Avenida Maria da Silva Doria, 555",
    "fid": 18,
    "fid_2": 10,
    "fid_3": 3,
    "gerente": "Luana Aparecida Oliveira Abou Chahla",
    "globalid": "{EAA88C76-1B9A-4F48-9958-E89D5C91B924}",
    "globalid_2": "{0AB484E2-4C95-45F6-98C8-F0457C8094EB}",
    "globalid_3": "f7311fde-f825-431d-b013-9f4461b3d561",
    "googlemaps": "https://www.google.com.br/maps/dir//-20.7873023075332,-49.3760476297271/@-20.7873023075332,-49.3760476297271z",
    "h_coleta": " ",
    "h_entrega": " ",
    "h_farmacia": "7h as 17h",
    "h_unidade": "Das 07h00 às 19h00",
    "h_vacina": "7h as 16:30",
    "lat": "-20,7856870181446",
    "lon": "-49,3728250969527",
    "nome": "UBS ANCHIETA",
    "objectid_1": 14,
    "objectid_2": 7,
    "regiao": "Central",
    "regiao_2": "Central",
    "shape_ar_1": 2412213.25,
    "shape_le_1": 8344.14,
    "site": "http://saude.riopreto.sp.gov.br/transparencia/modules/mastop_publish/?tac=USDSI_UBS_Anch",
    "telefone": "3224-4322",
    "tipo": "UBS"
   },
   "type": "Feature"
  },
  {
   "geometry": {
    "coordinates": [
     -49.36318934125088,
     -20.815071244117167
    ],
    "type": "Point"
   },
   "id": 19,
   "properties": {
    "abrang": "VILA ELVIRA",
    "abrangen_1": "VILA ELVIRA",
    "class": "Atenção Básica",
    "cod_abrg": "11",
    "cod_abrg_1": "11",
    "dia": "Segunda a sexta-feira",
    "email": "sms.elvira@riopreto.sp.gov.br",
    "endereco": "Avenida Major Leo Lerro, 558",
    "fid": 19,
    "fid_2": 1,
    "fid_3": 4,
    "gerente": "Flavia Rodrigues Petean",
    "globalid": "{1F75AE03-A95F-4686-ACC1-E8A4CCBA5A30}",
    "globalid_2": "{4C540375-DCBE-4D98-883C-8CC73FBD86AC}",
    "globalid_3": "217ac71c-7b01-44b1-bbf6-cdd17ffc0e0b",
    "googlemaps": "https://www.google.com.br/maps/dir//-20.8150712444738,-49.3631893414235/@-20.8150712444738,-49.3631893414235z",
    "h_coleta": " ",
    "h_entrega": " ",
    "h_farmacia": "7h as 17h",
    "h_unidade": "Das 07h00 às 17h00",
    "h_vacina": "7h as 16:30h",
    "lat": "-20,8150712444738",
    "lon": "-49,3631893414235",
    "nome": "UBS VILA ELVIRA",
    "objectid_1": 7,
    "objectid_2": 11,
    "regiao": "Central",
    "regiao_2": "Central",
    "shape_ar_1": 2942171.71,
    "shape_le_1": 7450.53,
    "site": "http://saude.riopreto.sp.gov.br/transparencia/modules/mastop_publish/?tac=USDSI_UBS_Vila_Elvi",
    "telefone": "3224-3695",
    "tipo": "UBS"
   },
   "type": "Feature"
  },
  {
   "geometry": {
    "coordinates": [
     -49.35967651885821,
     -20.80006056140123
    ],
    "type": "Point"
   },
   "id": 20,
   "properties": {
    "abrang": "JARDIM AMERICANO",
    "abrangen_1": "JARDIM AMERICANO",
    "class": "Atenção Básica",
    "cod_abrg": "15",
    "cod_abrg_1": "15",
    "dia": "Segunda a sexta-feira",
    "email": "sms.americano@riopreto.sp.gov.br",
    "endereco": "Avenida Dr Antonio Tavares Pereira Lima, 755",
    "fid": 20,
    "fid_2": 24,
    "fid_3": 5,
    "gerente": "Livia Vetorelli",
    "globalid": "{A9C10C51-A9E0-4FE0-8A33-2FD8C9692EE7}",
    "globalid_2": "{07BEB95F-1A84-4C27-9DC5-8115AFD4749A}",
    "globalid_3": "2d9f7488-77e8-4038-a928-badaccab8c31",
    "googlemaps": "https://www.google.com.br/maps/dir//-20.8000605616603,-49.3596765188862/@-20.8000605616603,-49.3596765188862z",
    "h_coleta": " ",
    "h_entrega": " ",
    "h_farmacia": "7h as 17h",
    "h_unidade": "Das 07h00 às 17h00",
    "h_vacina": "7h as 16:30h",
    "lat": "-20,8000605616603",
    "lon": "-49,3596765188862",
    "nome": "UBS JARDIM AMERICANO",
    "objectid_1": 23,
    "objectid_2": 15,
    "regiao": "Central",
    "regiao_2": "Central",
    "shape_ar_1": 2638299.49,
    "shape_le_1": 8598.3,
    "site": "http://saude.riopreto.sp.gov.br/transparencia/modules/mastop_publish/?tac=USDSI_UBSF_Jard_Amer",
    "telefone": "3224-9389",
    "tipo": "UBS"
   },
   "type": "Feature"
  },
  {
   "geometry": {
    "coordinates": [
     -49.37523207510141,
     -20.81543590847124
    ],
    "type": "Point"
   },
   "id": 21,
   "properties": {
    "abrang": "CENTRAL",
    "abrangen_1": "CENTRAL",
    "class": "Atenção Especializada",
    "cod_abrg": "10",
    "cod_abrg_1": "10",
    "dia": "CAPS",
    "email": "sms.capscentro@riopreto.sp.gov.br",
    "endereco": "Rua Siqueira Campos, 3718",
    "fid": 21,
    "fid_2": 3,
    "fid_3": 6,
    "gerente": "Angelica Aparecida De Oliveira",
    "globalid": "{584F21F6-BA3E-4F4E-BB7D-D71CAA549922}",
    "globalid_2": "{F78D7FBF-4C29-4291-BC9A-89E955DADA89}",
    "globalid_3": "86f27892-57e2-4b25-99e7-55c6505218db",
    "googlemaps": "https://www.google.com.br/maps/dir//-20.8131243069004,-49.3745078784591/@-20.8131243069004,-49.3745078784591z",
    "h_coleta": " ",
    "h_entrega": "13",
    "h_farmacia": " ",
    "h_unidade": "Das 08h00 às 18h00",
    "h_vacina": " ",
    "lat": "-20,8131243069004",
    "lon": "-49,3745078784591",
    "nome": "CAPS INFANTIL CENTRO",
    "objectid_1": 9,
    "objectid_2": 10,
    "regiao": "Central",
    "regiao_2": "Central",
    "shape_ar_1": 5210600.41,
    "shape_le_1": 15490.08,
    "site": "http://saude.riopreto.sp.gov.br/transparencia/modules/mastop_publish/?tac=USDSI_CAPS_Cria_Cent",
    "telefone": "3231-7323",
    "tipo": "CAPS INFANTIL CENTRO"
   },
   "type": "Feature"
  },
  {
   "geometry": {
    "coordinates": [
     -49.37490915950288,
     -20.808047069609877
    ],
    "type": "Point"
   },
   "id": 22,
   "properties": {
    "abrang": "CENTRAL",
    "abrangen_1": "CENTRAL",
    "class": "DVS",
    "cod_abrg": "10",
    "cod_abrg_1": "10",
    "dia": "Segunda a sexta-feira",
    "email": "sms.saudetrabalhador@riopreto.sp.gov.br",
    "endereco": "Rua São Paulo, 3250",
    "fid": 22,
    "fid_2": 3,
    "fid_3": 6,
    "gerente": "Ana Beatriz A Leovergilio",
    "globalid": "{D0EB93E6-EA8A-4EB9-A6BE-6C29FC787F31}",
    "globalid_2": "{F78D7FBF-4C29-4291-BC9A-89E955DADA89}",
    "globalid_3": "a893fbc6-3143-4cbb-8840-420687906b8d",
    "googlemaps": "https://www.google.com.br/maps/dir//-20.8173136332733,-49.3752524819341/@-20.8173136332733,-49.3752524819341z",
    "h_coleta": " ",
    "h_entrega": " ",
    "h_farmacia": " ",
    "h_unidade": "Das 08h00 às 18h00",
    "h_vacina": " ",
    "lat": "-20,8173136332733",
    "lon": "-49,3752524819341",
    "nome": "CENTRO DE REFERÊNCIA EM SAÚDE DO TRABALHADOR SJRP",
    "objectid_1": 9,
    "objectid_2": 10,
    "regiao": "Central",
    "regiao_2": "Central",
    "shape_ar_1": 5210600.41,
    "shape_le_1": 15490.08,
    "site": "http://saude.riopreto.sp.gov.br/transparencia/modules/mastop_publish/?tac=USDSI_Cent_Refe_Saud_Trab",
    "telefone": "3211-9488",
    "tipo": "CEREST"
   },
   "type": "Feature"
  },
  {
   "geometry": {
    "coordinates": [
     -49.374512042163545,
     -20.807435540656357
    ],
    "type": "Point"
   },
   "id": 23,
   "properties": {
    "abrang": "CENTRAL",
    "abrangen_1": "CENTRAL",
    "class": "Atenção Especializada",
    "cod_abrg": "10",
    "cod_abrg_1": "10",
    "dia": "CER",
    "email": "sms.nrm@riopreto.sp.gov.br",
    "endereco": "Rua São Paulo, 2330",
    "fid": 23,
    "fid_2": 3,
    "fid_3": 6,
    "gerente": "Carla Soleman",
    "globalid": "{F978E73F-E6B2-4F40-BCFA-718635310852}",
    "globalid_2": "{F78D7FBF-4C29-4291-BC9A-89E955DADA89}",
    "globalid_3": "49f77c2e-f327-4c4f-8205-03fe39cb1575",
    "googlemaps": "https://www.google.com.br/maps/dir//-20.8074355414858,-49.3745120419857/@-20.8074355414858,-49.3745120419857z",
    "h_coleta": " ",
    "h_entrega": "14",
    "h_farmacia": " ",
    "h_unidade": "Das 07h00 às 18h00",
    "h_vacina": " ",
    "lat": "-20,8074355414858",
    "lon": "-49,3745120419857",
    "nome": "CENTRO ESPECIALIZADO EM REABILITACAO - CER",
    "objectid_1": 9,
    "objectid_2": 10,
    "regiao": "Central",
    "regiao_2": "Central",
    "shape_ar_1": 5210600.41,
    "shape_le_1": 15490.08,
    "site": "http://saude.riopreto.sp.gov.br/transparencia/modules/mastop_publish/?tac=USDSI_CER_II",
    "telefone": "3237-7633",
    "tipo": "CER"
   },
   "type": "Feature"
  },
  {
   "geometry": {
    "coordinates": [
     -49.37528418726938,
     -20.807947179442138
    ],
    "type": "Point"
   },
   "id": 24,
   "properties": {
    "abrang": "CENTRAL",
    "abrangen_1": "CENTRAL",
    "class": "Atenção Básica",
    "cod_abrg": "10",
    "cod_abrg_1": "10",
    "dia": "Segunda a sexta-feira",
    "email": "sms.central@riopreto.sp.gov.br",
    "endereco": "Avenida Philadelpho Manoel Gouveia Netto, 3165",
    "fid": 24,
    "fid_2": 3,
    "fid_3": 6,
    "gerente": "Giseli Mara Pires Borelli",
    "globalid": "{DBC39925-44C8-4C8C-87CB-D5BFABF7C943}",
    "globalid_2": "{F78D7FBF-4C29-4291-BC9A-89E955DADA89}",
    "globalid_3": "d3f3db0b-5747-4f4f-b493-7ba96ceed7cb",
    "googlemaps": "https://www.google.com.br/maps/dir//-20.8079471803045,-49.3752841877032/@-20.8079471803045,-49.3752841877032z",
    "h_coleta": " ",
    "h_entrega": " ",
    "h_farmacia": "7h as 17h",
    "h_unidade": "Das 07h00 às 17h00",
    "h_vacina": "7:30h as 16:30h",
    "lat": "-20,8079471803045",
    "lon": "-49,3752841877032",
    "nome": "UBS CENTRAL",
    "objectid_1": 9,
    "objectid_2": 10,
    "regiao": "Central",
    "regiao_2": "Central",
    "shape_ar_1": 5210600.41,
    "shape_le_1": 15490.08,
    "site": "http://saude.riopreto.sp.gov.br/transparencia/modules/mastop_publish/?tac=USDSI_UBS_Cent",
    "telefone": "3224-8950",
    "tipo": "UBS"
   },
   "type": "Feature"
  },
  {
   "geometry": {
    "coordinates": [
     -49.37481069875787,
     -20.80770028780621
    ],
    "type": "Point"
   },
   "id": 25,
   "properties": {
    "abrang": "CENTRAL",
    "abrangen_1": "CENTRAL",
    "class": "Atenção Especializada",
    "cod_abrg": "10",
    "cod_abrg_1": "10",
    "dia": "CEO",
    "email": "sms.ceo@riopreto.sp.gov.br",
    "endereco": "Avenida Philadelpho Manoel Gouveia Netto, 3165",
    "fid": 25,
    "fid_2": 3,
    "fid_3": 6,
    "gerente": "Heloisa Amelia Aparecida Garcia Amaral",
    "globalid": "{AD79AF68-32D0-419F-9E1A-53A03E7AAC0D}",
    "globalid_2": "{F78D7FBF-4C29-4291-BC9A-89E955DADA89}",
    "globalid_3": "673ca0cd-d38d-4609-9e78-d826bfc4e5e6",
    "googlemaps": "https://www.google.com.br/maps/dir//-20.8077002881917,-49.3748106988644/@-20.8077002881917,-49.3748106988644z",
    "h_coleta": " ",
    "h_entrega": "15",
    "h_farmacia": " ",
    "h_unidade": "Houve remanejamento da força de trabalho para atendimentos prioritários",
    "h_vacina": " ",
    "lat": "-20,8077002881917",
    "lon": "-49,3748106988644",
    "nome": "CEO CENTRO",
    "objectid_1": 9,
    "objectid_2": 10,
    "regiao": "Central",
    "regiao_2": "Central",
    "shape_ar_1": 5210600.41,
    "shape_le_1": 15490.08,
    "site": "http://saude.riopreto.sp.gov.br/transparencia/modules/mastop_publish/?tac=USDSI_CEO_Cent",
    "telefone": "3221-6374",
    "tipo": "CEO CENTRO"
   },
   "type": "Feature"
  },
  {
   "geometry": {
    "coordinates": [
     -49.377208321115795,
     -20.80924050410915
    ],
    "type": "Point"
   },
   "id": 26,
   "properties": {
    "abrang": "CENTRAL",
    "abrangen_1": "CENTRAL",
    "class": "DAF",
    "cod_abrg": "10",
    "cod_abrg_1": "10",
    "dia": "Todos os dias",
    "email": "sms.farmaciamunicipal@riopreto.sp.gov.br",
    "endereco": "Praça Paul P. Harris (Terminal Rodoviário - E Box 13)",
    "fid": 26,
    "fid_2": 3,
    "fid_3": 6,
    "gerente": " ",
    "globalid": "{A65E595D-B521-44D8-8D43-C3EA8B47A416}",
    "globalid_2": "{F78D7FBF-4C29-4291-BC9A-89E955DADA89}",
    "globalid_3": "2da7ab36-f453-421b-98b6-4f04c16c1690",
    "googlemaps": "https://www.google.com.br/maps/dir//-20.8092405051093,-49.3772083211053/@-20.8092405051093,-49.3772083211053z",
    "h_coleta": " ",
    "h_entrega": " ",
    "h_farmacia": " ",
    "h_unidade": "Segunda a sexta: das 08h00 às 20h00; Sábado, domingo e feriados: das 08h00 às 14h00",
    "h_vacina": " ",
    "lat": "-20,8092405051093",
    "lon": "-49,3772083211053",
    "nome": "FARMÁCIA MUNICIPAL",
    "objectid_1": 9,
    "objectid_2": 10,
    "regiao": "Central",
    "regiao_2": "Central",
    "shape_ar_1": 5210600.41,
    "shape_le_1": 15490.08,
    "site": "http://saude.riopreto.sp.gov.br/transparencia/modules/mastop_publish/?tac=USRC_Farm_Muni",
    "telefone": "3231-3624",
    "tipo": "Farmácia"
   },
   "type": "Feature"
  },
  {
   "geometry": {
    "coordinates": [
     -49.37440212879695,
     -20.83983007567728
    ],
    "type": "Point"
   },
   "id": 27,
   "properties": {
    "abrang": "SÃO FRANCISCO",
    "abrangen_1": "SFO FRANCISCO",
    "class": "Urgência e Emergência",
    "cod_abrg": "09",
    "cod_abrg_1": "09",
    "dia": "Todos os dias",
    "email": "sms.upa.tangara@riopreto.sp.gov.br",
    "endereco": "Avenida Pres Getulio Vargas, 381",
    "fid": 27,
    "fid_2": 14,
    "fid_3": 7,
    "gerente": "Luciana Borges Garcia",
    "globalid": "{D6BB530D-7B4E-49B8-8F02-85B93D6B28C2}",
    "globalid_2": "{8F2F9F10-718A-4908-BF40-C2EEB59D1487}",
    "globalid_3": "b3015324-44f7-48af-91cf-f49455142071",
    "googlemaps": "https://www.google.com.br/maps/dir//-20.839830076453,-49.3744021290196/@-20.839830076453,-49.3744021290196z",
    "h_coleta": " ",
    "h_entrega": " ",
    "h_farmacia": "Não se aplica",
    "h_unidade": "24 Horas",
    "h_vacina": " ",
    "lat": "-20,839830076453",
    "lon": "-49,3744021290196",
    "nome": "UPA TANGARÁ ESTORIL",
    "objectid_1": 20,
    "objectid_2": 9,
    "regiao": "HB",
    "regiao_2": "HB",
    "shape_ar_1": 28635145.94,
    "shape_le_1": 34263.68,
    "site": "http://saude.riopreto.sp.gov.br/transparencia/modules/mastop_publish/?tac=USDSIII_UPA_Tang_Esto",
    "telefone": "3222-4184",
    "tipo": "UPA"
   },
   "type": "Feature"
  },
  {
   "geometry": {
    "coordinates": [
     -49.37812208472785,
     -20.844979775085115
    ],
    "type": "Point"
   },
   "id": 28,
   "properties": {
    "abrang": "SÃO FRANCISCO",
    "abrangen_1": "SFO FRANCISCO",
    "class": "Atenção Básica",
    "cod_abrg": "09",
    "cod_abrg_1": "09",
    "dia": "Segunda a sexta-feira",
    "email": "sms.francisco@riopreto.sp.gov.br",
    "endereco": "Rua Jose Secco, 750",
    "fid": 28,
    "fid_2": 14,
    "fid_3": 7,
    "gerente": "Maria Angelica Martello De Macedo",
    "globalid": "{31D2D2FE-93B5-4E2C-9ED1-0E4E132BB6A7}",
    "globalid_2": "{8F2F9F10-718A-4908-BF40-C2EEB59D1487}",
    "globalid_3": "65ed3adc-eb42-4a1e-b8c4-c6d26a7a3cb8",
    "googlemaps": "https://www.google.com.br/maps/dir//-20.8449797760742,-49.3781220843877/@-20.8449797760742,-49.3781220843877z",
    "h_coleta": " ",
    "h_entrega": " ",
    "h_farmacia": "7h as 17h",
    "h_unidade": "Das 07h00 às 17h00",
    "h_vacina": "7h as 16:30h",
    "lat": "-20,8449797760742",
    "lon": "-49,3781220843877",
    "nome": "UBS SÃO FRANCISCO",
    "objectid_1": 20,
    "objectid_2": 9,
    "regiao": "HB",
    "regiao_2": "HB",
    "shape_ar_1": 28635145.94,
    "shape_le_1": 34263.68,
    "site": "http://saude.riopreto.sp.gov.br/transparencia/modules/mastop_publish/?tac=USDSIII_UBS_Sao_Fran",
    "telefone": "3227-5360",
    "tipo": "UBS"
   },
   "type": "Feature"
  },
  {
   "geometry": {
    "coordinates": [
     -49.31826085600217,
     -20.772562007455942
    ],
    "type": "Point"
   },
   "id": 29,
   "properties": {
    "abrang": "LUZ DA ESPERANÇA",
    "abrangen_1": "LUZ DA ESPERANÇA",
    "class": "Atenção Básica",
    "cod_abrg": "28",
    "cod_abrg_1": "28",
    "dia": " ",
    "email": " ",
    "endereco": "Rua José Toschi, 1449",
    "fid": 29,
    "fid_2": 0,
    "fid_3": 8,
    "gerente": " ",
    "globalid": " ",
    "globalid_2": " ",
    "globalid_3": "30d3946d-530c-4c89-8c9b-4f028f5a4234",
    "googlemaps": " ",
    "h_coleta": " ",
    "h_entrega": " ",
    "h_farmacia": " ",
    "h_unidade": " ",
    "h_vacina": " ",
    "lat": "-20,7725620078031",
    "lon": "-49,3182608560137",
    "nome": "UBS LUZ DA ESPERANÇA",
    "objectid_1": 0,
    "objectid_2": 28,
    "regiao": "Represa",
    "regiao_2": "Represa",
    "shape_ar_1": 0.0,
    "shape_le_1": 0.0,
    "site": " ",
    "telefone": " ",
    "tipo": "UBS"
   },
   "type": "Feature"
  },
  {
   "geometry": {
    "coordinates": [
     -49.32899409140856,
     -20.753941006497268
    ],
    "type": "Point"
   },
   "id": 30,
   "properties": {
    "abrang": "LEALDADE E AMIZADE",
    "abrangen_1": "LEALDADE E AMIZADE",
    "class": "Atenção Básica",
    "cod_abrg": "27",
    "cod_abrg_1": "27",
    "dia": "Segunda a sexta-feira",
    "email": "sms.lealdade.amizade@riopreto.sp.gov.br",
    "endereco": "Rua Projetada 15, 500",
    "fid": 30,
    "fid_2": 22,
    "fid_3": 10,
    "gerente": "Paula Mello Dos Santos",
    "globalid": "{3584BDB8-D56A-4F24-A220-22DE5F59F053}",
    "globalid_2": "{F0D7BBD6-4287-4593-AAF6-DF38B63B3175}",
    "globalid_3": "530a3003-fb35-4567-ab4f-ce0b8d8baa56",
    "googlemaps": "https://www.google.com.br/maps/dir//-20.7539410070445,-49.3289940915748/@-20.7539410070445,-49.3289940915748z",
    "h_coleta": " ",
    "h_entrega": " ",
    "h_farmacia": "7h as 17h",
    "h_unidade": "Das 07h00 às 19h00",
    "h_vacina": "7h as 16:30h",
    "lat": "-20,7539410070445",
    "lon": "-49,3289940915748",
    "nome": "UBS LEALDADE E AMIZADE",
    "objectid_1": 27,
    "objectid_2": 27,
    "regiao": "Talhado",
    "regiao_2": "Talhado",
    "shape_ar_1": 7444020.0,
    "shape_le_1": 14989.32,
    "site": "http://saude.riopreto.sp.gov.br/transparencia/modules/mastop_publish/?tac=USDSV_UBSF_Leal",
    "telefone": "3229-7641",
    "tipo": "UBS"
   },
   "type": "Feature"
  },
  {
   "geometry": {
    "coordinates": [
     -49.38705157760384,
     -20.7819356213928
    ],
    "type": "Point"
   },
   "id": 31,
   "properties": {
    "abrang": "VILA MAYOR",
    "abrangen_1": "VILA MAYOR",
    "class": "Atenção Básica",
    "cod_abrg": "16",
    "cod_abrg_1": "16",
    "dia": "Segunda a sexta-feira",
    "email": "sms.mayor@riopreto.sp.gov.br",
    "endereco": "Avenida Domingos Falavina, 801",
    "fid": 31,
    "fid_2": 8,
    "fid_3": 11,
    "gerente": "Erika Cristhina Oliveira",
    "globalid": "{AF50954E-6597-48F5-B747-EDE63E8F49A8}",
    "globalid_2": "{48CF03A3-6262-499D-904A-A6AB89A08DBE}",
    "globalid_3": "7f9f5fa0-e075-47cf-9878-65277dcae02c",
    "googlemaps": "https://www.google.com.br/maps/dir//-20.7819356218934,-49.3870515772409/@-20.7819356218934,-49.3870515772409z",
    "h_coleta": " ",
    "h_entrega": " ",
    "h_farmacia": "7h as 17h",
    "h_unidade": "Das 07h00 às 22h00",
    "h_vacina": "7h as 16:30h",
    "lat": "-20,7819356218934",
    "lon": "-49,3870515772409",
    "nome": "UBS VILA MAYOR",
    "objectid_1": 12,
    "objectid_2": 16,
    "regiao": "Pinheirinho",
    "regiao_2": "Pinheirinho",
    "shape_ar_1": 3000064.21,
    "shape_le_1": 8891.37,
    "site": "http://saude.riopreto.sp.gov.br/transparencia/modules/mastop_publish/?tac=USDSII_UBSF_Vila_Mayo",
    "telefone": "3236-3784",
    "tipo": "UBS"
   },
   "type": "Feature"
  },
  {
   "geometry": {
    "coordinates": [
     -49.429195797511525,
     -20.790240316422928
    ],
    "type": "Point"
   },
   "id": 32,
   "properties": {
    "abrang": "GABRIELA",
    "abrangen_1": "GABRIELA",
    "class": "Atenção Básica",
    "cod_abrg": "25",
    "cod_abrg_1": "25",
    "dia": "Segunda a sexta-feira",
    "email": "sms.ubsfgabriela@riopreto.sp.gov.br",
    "endereco": "Rua Profa Aureliana Ferrari, 250",
    "fid": 32,
    "fid_2": 17,
    "fid_3": 12,
    "gerente": "Simone Pinheiro Vetorelli",
    "globalid": "{6981D1D0-8E81-4D05-8AD8-5E789E983468}",
    "globalid_2": "{4BA69C07-CCAE-4C52-9ADC-7842C0C564A1}",
    "globalid_3": "e3fb9102-c9e9-478a-beb8-43f582e5c4e4",
    "googlemaps": "https://www.google.com.br/maps/dir//-20.7902403174608,-49.4291957974715/@-20.7902403174608,-49.4291957974715z",
    "h_coleta": " ",
    "h_entrega": " ",
    "h_farmacia": "7h as 17h",
    "h_unidade": "Das 07h00 às 17h00",
    "h_vacina": "7h as 16:30h",
    "lat": "-20,7902403174608",
    "lon": "-49,4291957974715",
    "nome": "UBS JARDIM GABRIELA",
    "objectid_1": 3,
    "objectid_2": 25,
    "regiao": "Cidade da Criança",
    "regiao_2": "Cidade da Crian4a",
    "shape_ar_1": 3574232.35,
    "shape_le_1": 8479.21,
    "site": "http://saude.riopreto.sp.gov.br/transparencia/modules/mastop_publish/?tac=USDSII_UBSF_Jard_Gabr",
    "telefone": "3206-5418",
    "tipo": "UBS"
   },
   "type": "Feature"
  },
  {
   "geometry": {
    "coordinates": [
     -49.40983318558578,
     -20.779825879089397
    ],
    "type": "Point"
   },
   "id": 33,
   "properties": {
    "abrang": "SOLO SAGRADO",
    "abrangen_1": "SOLO SAGRADO",
    "class": "Atenção Especializada",
    "cod_abrg": "02",
    "cod_abrg_1": "02",
    "dia": "CEO",
    "email": "sms.ceo@riopreto.sp.gov.br",
    "endereco": "Rua Beatriz Da Conceicao, 406",
    "fid": 33,
    "fid_2": 21,
    "fid_3": 13,
    "gerente": "Giseli Faleiros De Moraes",
    "globalid": "{5B63BEF9-EB29-458D-9222-722BD804359C}",
    "globalid_2": "{40918C79-D9C3-4943-9A67-AD356B0FAD05}",
    "globalid_3": "9a6f60ec-47b4-4d9a-beb1-9d70913376c5",
    "googlemaps": "https://www.google.com.br/maps/dir//-20.7798258798375,-49.4098331855161/@-20.7798258798375,-49.4098331855161z",
    "h_coleta": " ",
    "h_entrega": "16",
    "h_farmacia": " ",
    "h_unidade": "Houve remanejamento da força de trabalho para atendimentos prioritários",
    "h_vacina": " ",
    "lat": "-20,7798258798375",
    "lon": "-49,4098331855161",
    "nome": "CEO NORTE",
    "objectid_1": 25,
    "objectid_2": 2,
    "regiao": "Pinheirinho",
    "regiao_2": "Pinheirinho",
    "shape_ar_1": 33587798.37,
    "shape_le_1": 39772.67,
    "site": "http://saude.riopreto.sp.gov.br/transparencia/modules/mastop_publish/?tac=USDSII_CEO_Nort",
    "telefone": "3219-2583",
    "tipo": "CEO NORTE"
   },
   "type": "Feature"
  },
  {
   "geometry": {
    "coordinates": [
     -49.40999521381529,
     -20.77970796570569
    ],
    "type": "Point"
   },
   "id": 34,
   "properties": {
    "abrang": "SOLO SAGRADO",
    "abrangen_1": "SOLO SAGRADO",
    "class": "Atenção Especializada",
    "cod_abrg": "02",
    "cod_abrg_1": "02",
    "dia": "UUF",
    "email": "sms.uuf@riopreto.sp.gov.br",
    "endereco": "Rua Beatriz Da Conceicao, 406",
    "fid": 34,
    "fid_2": 21,
    "fid_3": 13,
    "gerente": " ",
    "globalid": "{875219BC-0A0F-432B-B582-ECEBEF503C55}",
    "globalid_2": "{40918C79-D9C3-4943-9A67-AD356B0FAD05}",
    "globalid_3": "485847c6-a129-4f9d-969a-f8165cd1defe",
    "googlemaps": "https://www.google.com.br/maps/dir//-20.7797079662702,-49.4099952135683/@-20.7797079662702,-49.4099952135683z",
    "h_coleta": " ",
    "h_entrega": "17",
    "h_farmacia": " ",
    "h_unidade": "Houve remanejamento da força de trabalho para atendimentos prioritários",
    "h_vacina": " ",
    "lat": "-20,7797079662702",
    "lon": "-49,4099952135683",
    "nome": "UNIDADE DE URGÊNCIA EM FISIOTERAPIA - UUF",
    "objectid_1": 25,
    "objectid_2": 2,
    "regiao": "Pinheirinho",
    "regiao_2": "Pinheirinho",
    "shape_ar_1": 33587798.37,
    "shape_le_1": 39772.67,
    "site": "http://saude.riopreto.sp.gov.br/transparencia/modules/mastop_publish/?tac=USDSII_Unid_Urge_Fisi",
    "telefone": "3219-9327",
    "tipo": "URGENCIA EM FISIOTERAPIA"
   },
   "type": "Feature"
  },
  {
   "geometry": {
    "coordinates": [
     -49.409683132797376,
     -20.779963015548827
    ],
    "type": "Point"
   },
   "id": 35,
   "properties": {
    "abrang": "SOLO SAGRADO",
    "abrangen_1": "SOLO SAGRADO",
    "class": "Atenção Básica",
    "cod_abrg": "02",
    "cod_abrg_1": "02",
    "dia": "Todos os dias",
    "email": "sms.solosagrado@riopreto.sp.gov.br",
    "endereco": "Rua Beatriz Da Conceicao, 406",
    "fid": 35,
    "fid_2": 21,
    "fid_3": 13,
    "gerente": "Simone Da Silveira Vasconcelos Braga",
    "globalid": "{D143D697-8771-44E5-B657-53EFEC00F6CF}",
    "globalid_2": "{40918C79-D9C3-4943-9A67-AD356B0FAD05}",
    "globalid_3": "da551e82-185c-4f65-afbf-0264bcf53410",
    "googlemaps": "https://www.google.com.br/maps/dir//-20.7799630158316,-49.409683132363/@-20.7799630158316,-49.409683132363z",
    "h_coleta": " ",
    "h_entrega": " ",
    "h_farmacia": "7h as 19h",
    "h_unidade": "24 Horas",
    "h_vacina": "7h as 20h",
    "lat": "-20,7799630158316",
    "lon": "-49,409683132363",
    "nome": "UBS SOLO SAGRADO",
    "objectid_1": 25,
    "objectid_2": 2,
    "regiao": "Pinheirinho",
    "regiao_2": "Pinheirinho",
    "shape_ar_1": 33587798.37,
    "shape_le_1": 39772.67,
    "site": "http://saude.riopreto.sp.gov.br/transparencia/modules/mastop_publish/?tac=USDSII_UBS_Solo_Sagr",
    "telefone": "3219-9320",
    "tipo": "UBS"
   },
   "type": "Feature"
  },
  {
   "geometry": {
    "coordinates": [
     -49.406051605226374,
     -20.75190994752188
    ],
    "type": "Point"
   },
   "id": 36,
   "properties": {
    "abrang": "PARQUE DA CIDADANIA",
    "abrangen_1": "PARQUE DA CIDADANIA",
    "class": "Atenção Básica",
    "cod_abrg": "17",
    "cod_abrg_1": "17",
    "dia": "Segunda a sexta-feira",
    "email": "sms.cidadania@riopreto.sp.gov.br",
    "endereco": "Rua Joao Gagliardo, 105",
    "fid": 36,
    "fid_2": 12,
    "fid_3": 14,
    "gerente": "Edivania Da Silva Baungarte Arruda",
    "globalid": "{52F99FE8-C11C-4692-9465-8E531DE907DD}",
    "globalid_2": "{812688A6-3F52-41A0-B685-AD7012691145}",
    "globalid_3": "9a947acd-8381-41b9-8a97-89152299e810",
    "googlemaps": "https://www.google.com.br/maps/dir//-20.7519099484331,-49.4060516053932/@-20.7519099484331,-49.4060516053932z",
    "h_coleta": " ",
    "h_entrega": " ",
    "h_farmacia": "7h as 17h",
    "h_unidade": "Das 07h00 às 17h00",
    "h_vacina": "7h as 16:30h",
    "lat": "-20,7519099484331",
    "lon": "-49,4060516053932",
    "nome": "UBS PARQUE DA CIDADANIA",
    "objectid_1": 16,
    "objectid_2": 17,
    "regiao": "CEU",
    "regiao_2": "CEU",
    "shape_ar_1": 3620641.35,
    "shape_le_1": 9451.33,
    "site": "http://saude.riopreto.sp.gov.br/transparencia/modules/mastop_publish/?tac=USDSII_UBSF_Parq_Cida",
    "telefone": "3236-8106",
    "tipo": "UBS"
   },
   "type": "Feature"
  },
  {
   "geometry": {
    "coordinates": [
     -49.40994280071171,
     -20.74073443214196
    ],
    "type": "Point"
   },
   "id": 37,
   "properties": {
    "abrang": "NOVA ESPERANÇA",
    "abrangen_1": "NOVA ESPERANÇA",
    "class": "Atenção Básica",
    "cod_abrg": "26",
    "cod_abrg_1": "26",
    "dia": "Segunda a sexta-feira",
    "email": "sms.novaesperanca@riopreto.sp.gov.br",
    "endereco": "Avenida Osmani Soares Publio com a Rua Durvalino Venancio De Godoy",
    "fid": 37,
    "fid_2": 13,
    "fid_3": 15,
    "gerente": "Ana Paula Marcielo",
    "globalid": "{A5B677BF-A1FB-41C7-8B65-AFB826C6ADE5}",
    "globalid_2": "{907DC711-2501-4AC3-858E-6CB8F575B4F1}",
    "globalid_3": "6d3525a5-df70-4130-8b64-c3eb1b42ce76",
    "googlemaps": "https://www.google.com.br/maps/dir//-20.7407344329983,-49.4099428004232/@-20.7407344329983,-49.4099428004232z",
    "h_coleta": " ",
    "h_entrega": " ",
    "h_farmacia": "7h as 17h",
    "h_unidade": "Das 07h00 às 17h00",
    "h_vacina": "7h as 16:30h",
    "lat": "-20,7407344329983",
    "lon": "-49,4099428004232",
    "nome": "UBS NOVA ESPERANÇA",
    "objectid_1": 17,
    "objectid_2": 26,
    "regiao": "CEU",
    "regiao_2": "CEU",
    "shape_ar_1": 8355054.91,
    "shape_le_1": 13804.79,
    "site": "http://saude.riopreto.sp.gov.br/transparencia/modules/mastop_publish/?tac=USDSII_UBSF_Nova_Espe",
    "telefone": "3206-5453",
    "tipo": "UBS"
   },
   "type": "Feature"
  },
  {
   "geometry": {
    "coordinates": [
     -49.35187115257594,
     -20.825342991641207
    ],
    "type": "Point"
   },
   "id": 38,
   "properties": {
    "abrang": "CAIC",
    "abrangen_1": "CAIC",
    "class": "Atenção Básica",
    "cod_abrg": "24",
    "cod_abrg_1": "24",
    "dia": "Segunda a sexta-feira",
    "email": "sms.caic@riopreto.sp.gov.br",
    "endereco": "Avenida De Maio, 1160",
    "fid": 38,
    "fid_2": 0,
    "fid_3": 16,
    "gerente": "Renata Cristina Padin Antonio",
    "globalid": "{26CA727A-CD95-46EE-A750-C392E79FAA9A}",
    "globalid_2": "{3B85F309-7B0B-4B5E-9B1F-28B0C190D8F9}",
    "globalid_3": "86eb53f9-3b8d-4e63-9524-59bf144cdd3c",
    "googlemaps": "https://www.google.com.br/maps/dir//-20.8253429924742,-49.3518711523539/@-20.8253429924742,-49.3518711523539z",
    "h_coleta": " ",
    "h_entrega": " ",
    "h_farmacia": "7h as 17h",
    "h_unidade": "Das 07h00 às 19h00",
    "h_vacina": "7h as 16:30h",
    "lat": "-20,8253429924742",
    "lon": "-49,3518711523539",
    "nome": "UBS CAIC",
    "objectid_1": 6,
    "objectid_2": 24,
    "regiao": "Vila Toninho",
    "regiao_2": "Vila Toninho",
    "shape_ar_1": 3522725.74,
    "shape_le_1": 8603.88,
    "site": "http://saude.riopreto.sp.gov.br/transparencia/modules/mastop_publish/?tac=USDSIV_UBSF_CAIC_Cris_Rei",
    "telefone": "3238-1095",
    "tipo": "UBS"
   },
   "type": "Feature"
  },
  {
   "geometry": {
    "coordinates": [
     -49.423829312309806,
     -20.81155519406954
    ],
    "type": "Point"
   },
   "id": 39,
   "properties": {
    "abrang": "GONZAGA DE CAMPOS",
    "abrangen_1": "GONZAGA DE CAMPOS",
    "class": "Atenção Básica",
    "cod_abrg": "22",
    "cod_abrg_1": "22",
    "dia": "Segunda a sexta-feira",
    "email": "sms.ubsf.gcampos@riopreto.sp.gov.br",
    "endereco": "Avenida Feliciano Salles Cunha, 2140",
    "fid": 39,
    "fid_2": 16,
    "fid_3": 17,
    "gerente": "Laryssa Silva Lui",
    "globalid": "{EE41B352-D3AD-460A-AEC4-4D09661286AA}",
    "globalid_2": "{A4868EDB-3943-4A51-8592-8B573083B79E}",
    "globalid_3": "de4fc06b-d679-49c4-9ea1-8423b89efd7a",
    "googlemaps": "https://www.google.com.br/maps/dir//-20.8115551951046,-49.4238293123082/@-20.8115551951046,-49.4238293123082z",
    "h_coleta": " ",
    "h_entrega": " ",
    "h_farmacia": "7:30h as 16:30h",
    "h_unidade": "Das 07h00 às 17h00",
    "h_vacina": "7h as 16:30h",
    "lat": "-20,8115551951046",
    "lon": "-49,4238293123082",
    "nome": "UBS GONZAGA DE CAMPOS",
    "objectid_1": 2,
    "objectid_2": 22,
    "regiao": "Cidade da Criança",
    "regiao_2": "Cidade da CrianOa",
    "shape_ar_1": 9817885.72,
    "shape_le_1": 16434.8,
    "site": "http://saude.riopreto.sp.gov.br/transparencia/modules/mastop_publish/?tac=USDSII_UBSF_Gonz_Camp",
    "telefone": "3234-3139",
    "tipo": "UBS"
   },
   "type": "Feature"
  },
  {
   "geometry": {
    "coordinates": [
     -49.41195592795836,
     -20.797560661787987
    ],
    "type": "Point"
   },
   "id": 40,
   "properties": {
    "abrang": "VETORAZZO",
    "abrangen_1": "VETORAZZO",
    "class": "Atenção Básica",
    "cod_abrg": "01",
    "cod_abrg_1": "01",
    "dia": "Segunda a sexta-feira",
    "email": "sms.vetorazzo@riopreto.sp.gov.br",
    "endereco": "Avenida Fortunato Ernesto Vetorazzo, 711",
    "fid": 40,
    "fid_2": 18,
    "fid_3": 18,
    "gerente": "Luciana Gaberlini Soares Siqueira",
    "globalid": "{D7601989-6695-4AF8-BF90-4A9CF85799CD}",
    "globalid_2": "{00C40C53-56FF-4904-A7FB-DF16C0E38B4A}",
    "globalid_3": "63a25f6f-46f7-4c8c-8e17-b8f6fcb822c1",
    "googlemaps": "https://www.google.com.br/maps/dir//-20.7975606626505,-49.411955928052/@-20.7975606626505,-49.411955928052z",
    "h_coleta": " ",
    "h_entrega": " ",
    "h_farmacia": "7h as 19h",
    "h_unidade": "Das 07h00 às 19h00",
    "h_vacina": "7h as 19:30h",
    "lat": "-20,7975606626505",
    "lon": "-49,411955928052",
    "nome": "UBS VETORAZZO",
    "objectid_1": 4,
    "objectid_2": 1,
    "regiao": "Cidade da Criança",
    "regiao_2": "Cidade da Crian4a",
    "shape_ar_1": 5498452.5,
    "shape_le_1": 12822.35,
    "site": "http://saude.riopreto.sp.gov.br/transparencia/modules/mastop_publish/?tac=USDSII_UBS_Veto",
    "telefone": "3219-4171",
    "tipo": "UBS"
   },
   "type": "Feature"
  },
  {
   "geometry": {
    "coordinates": [
     -49.41307120075662,
     -20.789803300705405
    ],
    "type": "Point"
   },
   "id": 41,
   "properties": {
    "abrang": "VETORAZZO",
    "abrangen_1": "VETORAZZO",
    "class": " ",
    "cod_abrg": "01",
    "cod_abrg_1": "01",
    "dia": " ",
    "email": " ",
    "endereco": "Avenida Nametallah Youssef Tarraf, 125",
    "fid": 41,
    "fid_2": 0,
    "fid_3": 18,
    "gerente": " ",
    "globalid": " ",
    "globalid_2": "{00C40C53-56FF-4904-A7FB-DF16C0E38B4A}",
    "globalid_3": "ae331484-21d4-441b-9477-d9924178264c",
    "googlemaps": " ",
    "h_coleta": " ",
    "h_entrega": " ",
    "h_farmacia": " ",
    "h_unidade": " ",
    "h_vacina": " ",
    "lat": "-20,7898033015173",
    "lon": "-49,4130712003263",
    "nome": "HOSPITAL MUNICIPAL",
    "objectid_1": 0,
    "objectid_2": 1,
    "regiao": "Cidade da Criança",
    "regiao_2": "Cidade da Crian4a",
    "shape_ar_1": 5498452.5,
    "shape_le_1": 12822.35,
    "site": " ",
    "telefone": " ",
    "tipo": "HOSPITAL"
   },
   "type": "Feature"
  },
  {
   "geometry": {
    "coordinates": [
     -49.378713183371296,
     -20.767646211690032
    ],
    "type": "Point"
   },
   "id": 42,
   "properties": {
    "abrang": "RENASCER",
    "abrangen_1": "RENASCER",
    "class": "Atenção Especializada",
    "cod_abrg": "19",
    "cod_abrg_1": "19",
    "dia": "CAPS",
    "email": "sms.capscrianorte@riopreto.sp.gov.br",
    "endereco": "Rua Manoel Francisco Raposeiro, 200",
    "fid": 42,
    "fid_2": 19,
    "fid_3": 19,
    "gerente": "Melina Markies Scatena",
    "globalid": "{96C33701-A3A2-439E-8DAC-AC7A264F9C86}",
    "globalid_2": "{6AB9EEED-A7BD-4222-BE08-09E6C1F2754A}",
    "globalid_3": "f0e4724d-d446-4b66-b14f-ce0537bef2b6",
    "googlemaps": "https://www.google.com.br/maps/dir//-20.7676462126683,-49.3787131836/@-20.7676462126683,-49.3787131836z",
    "h_coleta": " ",
    "h_entrega": "18",
    "h_farmacia": " ",
    "h_unidade": "Das 08h00 às 18h00",
    "h_vacina": " ",
    "lat": "-20,7676462126683",
    "lon": "-49,3787131836",
    "nome": "CAPS INFANTIL NORTE",
    "objectid_1": 5,
    "objectid_2": 19,
    "regiao": "CEU",
    "regiao_2": "CEU",
    "shape_ar_1": 3563009.16,
    "shape_le_1": 11780.92,
    "site": "http://saude.riopreto.sp.gov.br/transparencia/modules/mastop_publish/?tac=USDSII_CAPS_Cria_Duas_Vend",
    "telefone": "3217-4822",
    "tipo": "CAPS INFANTIL NORTE"
   },
   "type": "Feature"
  },
  {
   "geometry": {
    "coordinates": [
     -49.384387301133636,
     -20.768175247932216
    ],
    "type": "Point"
   },
   "id": 43,
   "properties": {
    "abrang": "RENASCER",
    "abrangen_1": "RENASCER",
    "class": "Atenção Básica",
    "cod_abrg": "19",
    "cod_abrg_1": "19",
    "dia": "Segunda a sexta-feira",
    "email": "sms.renascer@riopreto.sp.gov.br",
    "endereco": "Rua Alberto Bechara Hage, 405",
    "fid": 43,
    "fid_2": 19,
    "fid_3": 19,
    "gerente": "Fabiana Maria Martins",
    "globalid": "{F3E8EE48-E2BF-4168-8091-236075BF8A42}",
    "globalid_2": "{6AB9EEED-A7BD-4222-BE08-09E6C1F2754A}",
    "globalid_3": "0af466ac-beed-436a-a3b4-2ee2a9238337",
    "googlemaps": "https://www.google.com.br/maps/dir//-20.7681752483252,-49.3843873007229/@-20.7681752483252,-49.3843873007229z",
    "h_coleta": " ",
    "h_entrega": " ",
    "h_farmacia": "7h as 17h",
    "h_unidade": "Das 07h00 às 17h00",
    "h_vacina": "7h as 16:30h",
    "lat": "-20,7681752483252",
    "lon": "-49,3843873007229",
    "nome": "UBS RENASCER",
    "objectid_1": 5,
    "objectid_2": 19,
    "regiao": "CEU",
    "regiao_2": "CEU",
    "shape_ar_1": 3563009.16,
    "shape_le_1": 11780.92,
    "site": "http://saude.riopreto.sp.gov.br/transparencia/modules/mastop_publish/?tac=USDSII_UBSF_Jard_Simo_Rena",
    "telefone": "3219-0107",
    "tipo": "UBS"
   },
   "type": "Feature"
  },
  {
   "geometry": {
    "coordinates": [
     -49.37329260611483,
     -20.773062855633775
    ],
    "type": "Point"
   },
   "id": 44,
   "properties": {
    "abrang": "JAGUARÉ",
    "abrangen_1": "JAGUARÉ",
    "class": "Atenção Especializada",
    "cod_abrg": "05",
    "cod_abrg_1": "05",
    "dia": "CAPS",
    "email": "sms.capsadnorte@riopreto.sp.gov.br",
    "endereco": "Rua Joaquim Rosa Dos Santos, 851",
    "fid": 44,
    "fid_2": 9,
    "fid_3": 20,
    "gerente": "Rafael Rosa Plastino",
    "globalid": "{52BAF1F4-6BE7-45B2-AB0C-04169C5D084E}",
    "globalid_2": "{CC75A76B-E9EB-44C9-AE85-6FA9D8A419FD}",
    "globalid_3": "73bc83be-5a3d-48b7-b9a4-a636ed71b557",
    "googlemaps": "https://www.google.com.br/maps/dir//-20.7730628560081,-49.373292605973/@-20.7730628560081,-49.373292605973z",
    "h_coleta": " ",
    "h_entrega": "19",
    "h_farmacia": " ",
    "h_unidade": "Das 08h00 às 18h00",
    "h_vacina": " ",
    "lat": "-20,7730628560081",
    "lon": "-49,373292605973",
    "nome": "CAPS AD NORTE",
    "objectid_1": 13,
    "objectid_2": 5,
    "regiao": "Bosque",
    "regiao_2": "Bosque",
    "shape_ar_1": 24566507.56,
    "shape_le_1": 49199.77,
    "site": "http://saude.riopreto.sp.gov.br/transparencia/modules/mastop_publish/?tac=USDSV_CAPS_AD",
    "telefone": "3224-0728",
    "tipo": "CAPS AD NORTE"
   },
   "type": "Feature"
  },
  {
   "geometry": {
    "coordinates": [
     -49.366316015632144,
     -20.777059919945486
    ],
    "type": "Point"
   },
   "id": 45,
   "properties": {
    "abrang": "JAGUARÉ",
    "abrangen_1": "JAGUARÉ",
    "class": "Urgência e Emergência",
    "cod_abrg": "05",
    "cod_abrg_1": "05",
    "dia": "Todos os dias",
    "email": "sms.upa.jaguare@riopreto.sp.gov.br",
    "endereco": "Avenida Danilo Galeazzi, 2450",
    "fid": 45,
    "fid_2": 9,
    "fid_3": 20,
    "gerente": "Fernanda Mioto Durval",
    "globalid": "{3F49F884-25BD-4FC6-977B-5284ADF101D5}",
    "globalid_2": "{CC75A76B-E9EB-44C9-AE85-6FA9D8A419FD}",
    "globalid_3": "be49b3aa-5354-4e81-a150-d010457715ed",
    "googlemaps": "https://www.google.com.br/maps/dir//-20.7770599208547,-49.3663160153275/@-20.7770599208547,-49.3663160153275z",
    "h_coleta": " ",
    "h_entrega": " ",
    "h_farmacia": "Não se aplica",
    "h_unidade": "24 Horas - A ENTRADA DE PACIENTES SE DÁ APENAS PELA REGULAÇÃO DO SAMU",
    "h_vacina": " ",
    "lat": "-20,7770599208547",
    "lon": "-49,3663160153275",
    "nome": "UPA JAGUARÉ",
    "objectid_1": 13,
    "objectid_2": 5,
    "regiao": "Bosque",
    "regiao_2": "Bosque",
    "shape_ar_1": 24566507.56,
    "shape_le_1": 49199.77,
    "site": "http://saude.riopreto.sp.gov.br/transparencia/modules/mastop_publish/?tac=USDSV_UPA_Jagu",
    "telefone": "3215-1192",
    "tipo": "UPA"
   },
   "type": "Feature"
  },
  {
   "geometry": {
    "coordinates": [
     -49.362581665097174,
     -20.776103871036643
    ],
    "type": "Point"
   },
   "id": 46,
   "properties": {
    "abrang": "JAGUARÉ",
    "abrangen_1": "JAGUARÉ",
    "class": "Atenção Básica",
    "cod_abrg": "05",
    "cod_abrg_1": "05",
    "dia": " ",
    "email": " ",
    "endereco": "Rua José Leite Arabone, 400",
    "fid": 46,
    "fid_2": 0,
    "fid_3": 20,
    "gerente": " ",
    "globalid": " ",
    "globalid_2": "{CC75A76B-E9EB-44C9-AE85-6FA9D8A419FD}",
    "globalid_3": "8178b034-547d-4c14-bad9-f47b51ff25e5",
    "googlemaps": " ",
    "h_coleta": " ",
    "h_entrega": " ",
    "h_farmacia": " ",
    "h_unidade": " ",
    "h_vacina": " ",
    "lat": "-20,776103871552",
    "lon": "-49,3625816650465",
    "nome": "UBS JOÃO PAULO II /JAGUARÉ",
    "objectid_1": 0,
    "objectid_2": 5,
    "regiao": "Bosque",
    "regiao_2": "Bosque",
    "shape_ar_1": 24566507.56,
    "shape_le_1": 49199.77,
    "site": " ",
    "telefone": " ",
    "tipo": "UBS"
   },
   "type": "Feature"
  },
  {
   "geometry": {
    "coordinates": [
     -49.3964262809246,
     -20.762219271129744
    ],
    "type": "Point"
   },
   "id": 47,
   "properties": {
    "abrang": "SANTO ANTÔNIO",
    "abrangen_1": "SANTO ANTÔNIO",
    "class": "Atenção Básica",
    "cod_abrg": "04",
    "cod_abrg_1": "04",
    "dia": "Segunda a sexta-feira",
    "email": "sms.stoantonio@riopreto.sp.gov.br",
    "endereco": "Rua Ida Tagliavini Polachini, 580",
    "fid": 47,
    "fid_2": 5,
    "fid_3": 21,
    "gerente": "Natalia Regina Baioni Florido",
    "globalid": "{C29E343A-26F2-44FA-9FBA-36F80BDA2D5D}",
    "globalid_2": "{A05D1B3D-E09F-4A51-A8CC-588C8C6182A3}",
    "globalid_3": "143a9fa8-2249-462e-8754-3fd4ea88b1f7",
    "googlemaps": "https://www.google.com.br/maps/dir//-20.7622192713828,-49.3964262806835/@-20.7622192713828,-49.3964262806835z",
    "h_coleta": " ",
    "h_entrega": " ",
    "h_farmacia": "7h as 19h",
    "h_unidade": "Das 07h00 às 19h00",
    "h_vacina": "7h as 20h",
    "lat": "-20,7622192713828",
    "lon": "-49,3964262806835",
    "nome": "UBS SANTO ANTONIO",
    "objectid_1": 18,
    "objectid_2": 4,
    "regiao": "CEU",
    "regiao_2": "CEU",
    "shape_ar_1": 12356031.66,
    "shape_le_1": 23220.97,
    "site": "http://saude.riopreto.sp.gov.br/transparencia/modules/mastop_publish/?tac=USDSII_UBS_Sant_Anto",
    "telefone": "3206-2088",
    "tipo": "UBS"
   },
   "type": "Feature"
  },
  {
   "geometry": {
    "coordinates": [
     -49.39586189907599,
     -20.76200367709097
    ],
    "type": "Point"
   },
   "id": 48,
   "properties": {
    "abrang": "SANTO ANTÔNIO",
    "abrangen_1": "SANTO ANTÔNIO",
    "class": "Urgência e Emergência",
    "cod_abrg": "04",
    "cod_abrg_1": "04",
    "dia": "Todos os dias",
    "email": "sms.upa.stoantonio@riopreto.sp.gov.br",
    "endereco": "Rua Ida Tagliavini Polachini, 580",
    "fid": 48,
    "fid_2": 5,
    "fid_3": 21,
    "gerente": "Valdelice Aparecida De Souza",
    "globalid": "{4A983EA8-E118-40A7-A2A5-91B552FFB1AC}",
    "globalid_2": "{A05D1B3D-E09F-4A51-A8CC-588C8C6182A3}",
    "globalid_3": "86327323-9796-475c-8e6f-560510821d22",
    "googlemaps": "https://www.google.com.br/maps/dir//-20.7620036780871,-49.3958618989919/@-20.7620036780871,-49.3958618989919z",
    "h_coleta": " ",
    "h_entrega": " ",
    "h_farmacia": "Não se aplica",
    "h_unidade": "24 Horas",
    "h_vacina": " ",
    "lat": "-20,7620036780871",
    "lon": "-49,3958618989919",
    "nome": "PRONTO SOCORRO SANTO ANTÔNIO",
    "objectid_1": 18,
    "objectid_2": 4,
    "regiao": "CEU",
    "regiao_2": "CEU",
    "shape_ar_1": 12356031.66,
    "shape_le_1": 23220.97,
    "site": "http://saude.riopreto.sp.gov.br/transparencia/modules/mastop_publish/?tac=USDSII_UPA_Sant_Anto",
    "telefone": "3206-2080",
    "tipo": "PRONTO SOCORRO"
   },
   "type": "Feature"
  },
  {
   "geometry": {
    "coordinates": [
     -49.40330215319586,
     -20.777581560716797
    ],
    "type": "Point"
   },
   "id": 49,
   "properties": {
    "abrang": "MARIA LÚCIA",
    "abrangen_1": "MARIA LÚCIA",
    "class": "Urgência e Emergência",
    "cod_abrg": "18",
    "cod_abrg_1": "18",
    "dia": "Todos os dias",
    "email": "sms.upa.regiaonorte@riopreto.sp.gov.br",
    "endereco": "Rua Manoel Moreno",
    "fid": 49,
    "fid_2": 20,
    "fid_3": 22,
    "gerente": "Marilda Goncalves Fonseca Veiga",
    "globalid": "{230F91B1-7A61-4BB8-8328-24415E1F1A92}",
    "globalid_2": "{683557AC-21C7-4C4D-B771-9C2DF899B13E}",
    "globalid_3": "84d954cb-3378-490f-b1bc-0d7b119c0f62",
    "googlemaps": "https://www.google.com.br/maps/dir//-20.7775815611116,-49.4033021534644/@-20.7775815611116,-49.4033021534644z",
    "h_coleta": " ",
    "h_entrega": " ",
    "h_farmacia": "Não se aplica",
    "h_unidade": "24 Horas",
    "h_vacina": " ",
    "lat": "-20,7775815611116",
    "lon": "-49,4033021534644",
    "nome": "UPA REGIAO NORTE",
    "objectid_1": 24,
    "objectid_2": 18,
    "regiao": "Pinheirinho",
    "regiao_2": "Pinheirinho",
    "shape_ar_1": 5708496.58,
    "shape_le_1": 14705.97,
    "site": "http://saude.riopreto.sp.gov.br/transparencia/modules/mastop_publish/?tac=USDSII_UPA_Regi_Nort",
    "telefone": "3237-5315",
    "tipo": "UPA"
   },
   "type": "Feature"
  },
  {
   "geometry": {
    "coordinates": [
     -49.410480996669776,
     -20.76867608629593
    ],
    "type": "Point"
   },
   "id": 50,
   "properties": {
    "abrang": "MARIA LÚCIA",
    "abrangen_1": "MARIA LÚCIA",
    "class": "Atenção Básica",
    "cod_abrg": "18",
    "cod_abrg_1": "18",
    "dia": "Segunda a sexta-feira",
    "email": "sms.marialucia@riopreto.sp.gov.br",
    "endereco": "Rua Almirante Tamandare, 1150",
    "fid": 50,
    "fid_2": 20,
    "fid_3": 22,
    "gerente": "Daniela Ferreira Lima",
    "globalid": "{55232BDE-F968-4AE5-AA3F-1C490BF03D2C}",
    "globalid_2": "{683557AC-21C7-4C4D-B771-9C2DF899B13E}",
    "globalid_3": "c05b6c68-6288-4602-9da5-53133532b979",
    "googlemaps": "https://www.google.com.br/maps/dir//-20.7686760867317,-49.4104809964368/@-20.7686760867317,-49.4104809964368z",
    "h_coleta": " ",
    "h_entrega": " ",
    "h_farmacia": "7h as 17h",
    "h_unidade": "Das 07h00 às 17h00",
    "h_vacina": "7h as 16:30h",
    "lat": "-20,7686760867317",
    "lon": "-49,4104809964368",
    "nome": "UBS JARDIM MARIA LÚCIA",
    "objectid_1": 24,
    "objectid_2": 18,
    "regiao": "Pinheirinho",
    "regiao_2": "Pinheirinho",
    "shape_ar_1": 5708496.58,
    "shape_le_1": 14705.97,
    "site": "http://saude.riopreto.sp.gov.br/transparencia/modules/mastop_publish/?tac=USDSII_UBSF_Jard_Mari_Luci",
    "telefone": "3219-6158",
    "tipo": "UBS"
   },
   "type": "Feature"
  },
  {
   "geometry": {
    "coordinates": [
     -49.294172451708455,
     -20.708968959428084
    ],
    "type": "Point"
   },
   "id": 51,
   "properties": {
    "abrang": "TALHADO",
    "abrangen_1": "TALHADO",
    "class": "Atenção Básica",
    "cod_abrg": "21",
    "cod_abrg_1": "21",
    "dia": "Segunda a sexta-feira",
    "email": "sms.talhado@riopreto.sp.gov.br",
    "endereco": "Rua Ezequiel Pinto, 142",
    "fid": 51,
    "fid_2": 23,
    "fid_3": 23,
    "gerente": "Alessandra Lima Vicentim",
    "globalid": "{17C46350-F61A-40D6-AC4E-93C89E577CC8}",
    "globalid_2": "{AEE48254-B75D-4726-B1B9-3AB494670753}",
    "globalid_3": "98ca067a-ef14-4dc5-82e0-0b9b402d6d5e",
    "googlemaps": "https://www.google.com.br/maps/dir//-20.7089689601717,-49.2941724519052/@-20.7089689601717,-49.2941724519052z",
    "h_coleta": " ",
    "h_entrega": " ",
    "h_farmacia": "7h as 17h",
    "h_unidade": "Das 07h00 às 17h00",
    "h_vacina": "7h as 16:30h",
    "lat": "-20,7089689601717",
    "lon": "-49,2941724519052",
    "nome": "UBS TALHADO",
    "objectid_1": 28,
    "objectid_2": 21,
    "regiao": "Talhado",
    "regiao_2": "Talhado",
    "shape_ar_1": 58875466.53,
    "shape_le_1": 38005.52,
    "site": "http://saude.riopreto.sp.gov.br/transparencia/modules/mastop_publish/?tac=USDSV_UBSF_Talh",
    "telefone": "3829-6114",
    "tipo": "UBS"
   },
   "type": "Feature"
  },
  {
   "geometry": {
    "coordinates": [
     -49.33885620083947,
     -20.876119460394854
    ],
    "type": "Point"
   },
   "id": 52,
   "properties": {
    "abrang": "FRATERNIDADE",
    "abrangen_1": "FRATERNIDADE",
    "class": "Atenção Básica",
    "cod_abrg": "29",
    "cod_abrg_1": "29",
    "dia": " ",
    "email": " ",
    "endereco": "Avenida Clelia Ceribelli de Assis Ferreira, 3731",
    "fid": 52,
    "fid_2": 0,
    "fid_3": 24,
    "gerente": " ",
    "globalid": " ",
    "globalid_2": " ",
    "globalid_3": "712708b1-aca7-4dba-b390-74e671fd40cc",
    "googlemaps": " ",
    "h_coleta": " ",
    "h_entrega": " ",
    "h_farmacia": " ",
    "h_unidade": " ",
    "h_vacina": " ",
    "lat": "-20,8761194611202",
    "lon": "-49,3388562005444",
    "nome": "UBS FRATERNIDADE",
    "objectid_1": 0,
    "objectid_2": 29,
    "regiao": "Schimitt",
    "regiao_2": "Schimitt",
    "shape_ar_1": 0.0,
    "shape_le_1": 0.0,
    "site": " ",
    "telefone": " ",
    "tipo": "UBS"
   },
   "type": "Feature"
  },
  {
   "geometry": {
    "coordinates": [
     -49.34408601276057,
     -20.791680097921017
    ],
    "type": "Point"
   },
   "id": 53,
   "properties": {
    "abrang": "SÃO DEOCLECIANO",
    "abrangen_1": "SÃO DEOCLECIANO",
    "class": "Atenção Básica",
    "cod_abrg": "06",
    "cod_abrg_1": "06",
    "dia": "Segunda a sexta-feira",
    "email": "sms.deocleciano@riopreto.sp.gov.br",
    "endereco": "Rua Joao Jose Lucania Fernandes com a Rua Jorge Abdala",
    "fid": 53,
    "fid_2": 25,
    "fid_3": 25,
    "gerente": "Edson Antonio Romagnoli",
    "globalid": "{5002EAC2-8515-4CBE-AE17-C548A13948F9}",
    "globalid_2": "{B331D208-E28E-4B72-9104-95747B61F385}",
    "globalid_3": "e0785bf3-ce03-4877-884b-2d1fd96c984a",
    "googlemaps": "https://www.google.com.br/maps/dir//-20.7916800989481,-49.3440860127048/@-20.7916800989481,-49.3440860127048z",
    "h_coleta": " ",
    "h_entrega": " ",
    "h_farmacia": "7h as 17h",
    "h_unidade": "Das 07h00 às 20h00",
    "h_vacina": "7h as 19h",
    "lat": "-20,7916800989481",
    "lon": "-49,3440860127048",
    "nome": "UBS SÃO DEOCLECIANO",
    "objectid_1": 26,
    "objectid_2": 6,
    "regiao": "Represa",
    "regiao_2": "Represa",
    "shape_ar_1": 58275589.02,
    "shape_le_1": 38520.79,
    "site": "http://saude.riopreto.sp.gov.br/transparencia/modules/mastop_publish/?tac=USDSV_UBSF_Sao_Deoc",
    "telefone": "3225-3689",
    "tipo": "UBS"
   },
   "type": "Feature"
  },
  {
   "geometry": {
    "coordinates": [
     -49.30704340080992,
     -20.86823245561538
    ],
    "type": "Point"
   },
   "id": 54,
   "properties": {
    "abrang": "ENGENHEIRO SCHMITT",
    "abrangen_1": "ENGENHEIRO SCHMITT",
    "class": "Atenção Básica",
    "cod_abrg": "14",
    "cod_abrg_1": "14",
    "dia": "Segunda a sexta-feira",
    "email": "sms.schmidt@riopreto.sp.gov.br",
    "endereco": "Rua Otavio Zanetoni, 158",
    "fid": 54,
    "fid_2": 26,
    "fid_3": 26,
    "gerente": "Tamires Aguerra Peres",
    "globalid": "{EBCAEF51-880D-440B-AD7E-B5CE33179D89}",
    "globalid_2": "{10711A6F-1565-4B65-A35B-C95EAE3BC05B}",
    "globalid_3": "b4f20e94-3bf5-473f-ac63-3d322482ddde",
    "googlemaps": "https://www.google.com.br/maps/dir//-20.8682324561956,-49.3070434012386/@-20.8682324561956,-49.3070434012386z",
    "h_coleta": " ",
    "h_entrega": " ",
    "h_farmacia": "7h as 17h",
    "h_unidade": "Das 07h00 às 17h00",
    "h_vacina": "7h as 16:30h",
    "lat": "-20,8682324561956",
    "lon": "-49,3070434012386",
    "nome": "UBS ENGENHEIRO SCHMITT",
    "objectid_1": 21,
    "objectid_2": 14,
    "regiao": "Schimitt",
    "regiao_2": "Schimitt",
    "shape_ar_1": 53329737.89,
    "shape_le_1": 40225.88,
    "site": "http://saude.riopreto.sp.gov.br/transparencia/modules/mastop_publish/?tac=USDSIV_UBSF_Enge_Schm",
    "telefone": "3808-1586",
    "tipo": "UBS"
   },
   "type": "Feature"
  },
  {
   "geometry": {
    "coordinates": [
     -49.308728496552504,
     -20.87216348599601
    ],
    "type": "Point"
   },
   "id": 55,
   "properties": {
    "abrang": "ENGENHEIRO SCHMITT",
    "abrangen_1": "ENGENHEIRO SCHMITT",
    "class": "Atenção Especializada",
    "cod_abrg": "14",
    "cod_abrg_1": "14",
    "dia": "CAPS",
    "email": "sms.capsad3@riopreto.sp.gov.br",
    "endereco": "Rua Voluntarios Da Patria, 5",
    "fid": 55,
    "fid_2": 26,
    "fid_3": 26,
    "gerente": "Taís Maurília Nato Toninato",
    "globalid": "{8645462E-E6C3-411D-AC23-7E5760D6BBD3}",
    "globalid_2": "{10711A6F-1565-4B65-A35B-C95EAE3BC05B}",
    "globalid_3": "e679d2b7-82a2-4ecc-87cf-0808832cdd5d",
    "googlemaps": "https://www.google.com.br/maps/dir//-20.8721634870251,-49.3087284969199/@-20.8721634870251,-49.3087284969199z",
    "h_coleta": " ",
    "h_entrega": "20",
    "h_farmacia": " ",
    "h_unidade": "Das 07h00 às 19h00",
    "h_vacina": " ",
    "lat": "-20,8721634870251",
    "lon": "-49,3087284969199",
    "nome": "CAPS AD III - CIAPS",
    "objectid_1": 21,
    "objectid_2": 14,
    "regiao": "Schimitt",
    "regiao_2": "Schimitt",
    "shape_ar_1": 53329737.89,
    "shape_le_1": 40225.88,
    "site": "http://saude.riopreto.sp.gov.br/transparencia/modules/mastop_publish/?tac=USDSIV_CAPS_AD_III",
    "telefone": "3808-1596",
    "tipo": "CAPS AD III - CIAPS"
   },
   "type": "Feature"
  },
  {
   "geometry": {
    "coordinates": [
     -49.344708190417954,
     -20.843814259182516
    ],
    "type": "Point"
   },
   "id": 56,
   "properties": {
    "abrang": "VILA TONINHO",
    "abrangen_1": "VILA TONINHO",
    "class": "Urgência e Emergência",
    "cod_abrg": "12",
    "cod_abrg_1": "12",
    "dia": "Todos os dias",
    "email": "sms.upa.vilatoninho@riopreto.sp.gov.br",
    "endereco": "Rua Maria Onofre Lopes Santos, 610",
    "fid": 56,
    "fid_2": 15,
    "fid_3": 27,
    "gerente": "Christiane Iamachita Lima dos Santos",
    "globalid": "{B8F09735-0EDB-4FB3-8ED9-4B9A9120CE85}",
    "globalid_2": "{657C8103-825C-4758-965B-9BC3247BB3F3}",
    "globalid_3": "09945ef8-b22e-4fd4-8a9f-fd138425643d",
    "googlemaps": "https://www.google.com.br/maps/dir//-20.8438142597591,-49.3447081901803/@-20.8438142597591,-49.3447081901803z",
    "h_coleta": " ",
    "h_entrega": " ",
    "h_farmacia": "Não se aplica",
    "h_unidade": "24 Horas",
    "h_vacina": " ",
    "lat": "-20,8438142597591",
    "lon": "-49,3447081901803",
    "nome": "PRONTO SOCORRO VILA TONINHO",
    "objectid_1": 1,
    "objectid_2": 12,
    "regiao": "Vila Toninho",
    "regiao_2": "Vila Toninho",
    "shape_ar_1": 18457621.52,
    "shape_le_1": 23597.28,
    "site": "http://saude.riopreto.sp.gov.br/transparencia/modules/mastop_publish/?tac=USDSIV_UPA_Vila_Toni",
    "telefone": "3238-2022",
    "tipo": "PRONTO SOCORRO"
   },
   "type": "Feature"
  },
  {
   "geometry": {
    "coordinates": [
     -49.345511214213325,
     -20.84433646319804
    ],
    "type": "Point"
   },
   "id": 57,
   "properties": {
    "abrang": "VILA TONINHO",
    "abrangen_1": "VILA TONINHO",
    "class": "Atenção Básica",
    "cod_abrg": "12",
    "cod_abrg_1": "12",
    "dia": "Segunda a sexta-feira",
    "email": "sms.toninho@riopreto.sp.gov.br",
    "endereco": "Rua Odilon Amadeu, 710",
    "fid": 57,
    "fid_2": 15,
    "fid_3": 27,
    "gerente": "Andreia Cristina Marascalchi Ferreira",
    "globalid": "{8F33A5B4-60E4-4B84-B1C4-E7A00AEB3353}",
    "globalid_2": "{657C8103-825C-4758-965B-9BC3247BB3F3}",
    "globalid_3": "b8d12662-e408-461d-9055-24bb6e3ab634",
    "googlemaps": "https://www.google.com.br/maps/dir//-20.8443364637866,-49.345511214/@-20.8443364637866,-49.345511214z",
    "h_coleta": " ",
    "h_entrega": " ",
    "h_farmacia": "7h as 17h",
    "h_unidade": "Das 07h00 às 22h00",
    "h_vacina": "7h as 20h",
    "lat": "-20,8443364637866",
    "lon": "-49,345511214",
    "nome": "UBS VILA TONINHO",
    "objectid_1": 1,
    "objectid_2": 12,
    "regiao": "Vila Toninho",
    "regiao_2": "Vila Toninho",
    "shape_ar_1": 18457621.52,
    "shape_le_1": 23597.28,
    "site": "http://saude.riopreto.sp.gov.br/transparencia/modules/mastop_publish/?tac=USDSIV_UBSF_Vila_Toni",
    "telefone": "3218-1004",
    "tipo": "UBS"
   },
   "type": "Feature"
  },
  {
   "geometry": {
    "coordinates": [
     -49.36386773098718,
     -20.853254406312658
    ],
    "type": "Point"
   },
   "id": 58,
   "properties": {
    "abrang": "VILA TONINHO",
    "abrangen_1": "VILA TONINHO",
    "class": "DVS",
    "cod_abrg": "12",
    "cod_abrg_1": "12",
    "dia": "Segunda a sexta-feira",
    "email": "sms.zoonoses@riopreto.sp.gov.br",
    "endereco": "Avenida Projetada 02, 1721",
    "fid": 58,
    "fid_2": 15,
    "fid_3": 27,
    "gerente": "Vanessa Leiko Aoki",
    "globalid": "{CC7595FA-FDDC-4597-98F0-DF5AFC079401}",
    "globalid_2": "{657C8103-825C-4758-965B-9BC3247BB3F3}",
    "globalid_3": "77b78ba5-db75-4774-a344-3a89f198237c",
    "googlemaps": "https://www.google.com.br/maps/dir//-20.8532544071248,-49.3638677313924/@-20.8532544071248,-49.3638677313924z",
    "h_coleta": " ",
    "h_entrega": " ",
    "h_farmacia": " ",
    "h_unidade": "Das 08h00 às 17h00",
    "h_vacina": " ",
    "lat": "-20,8532544071248",
    "lon": "-49,3638677313924",
    "nome": "CENTRO DE CONTROLE DE ZOONOSES",
    "objectid_1": 1,
    "objectid_2": 12,
    "regiao": "Vila Toninho",
    "regiao_2": "Vila Toninho",
    "shape_ar_1": 18457621.52,
    "shape_le_1": 23597.28,
    "site": "http://saude.riopreto.sp.gov.br/transparencia/modules/mastop_publish/?tac=USDSI_Cent_Cont_Zoon",
    "telefone": "3231-6494",
    "tipo": "CCZ"
   },
   "type": "Feature"
  },
  {
   "geometry": {
    "coordinates": [
     -49.361998694410374,
     -20.84767255292384
    ],
    "type": "Point"
   },
   "id": 59,
   "properties": {
    "abrang": "CIDADE JARDIM",
    "abrangen_1": "CIDADE JARDIM",
    "class": "Atenção Básica",
    "cod_abrg": "23",
    "cod_abrg_1": "23",
    "dia": "devido à Pandemia da COVID-19",
    "email": "sms.cidadejardim@riopreto.sp.gov.br",
    "endereco": "Avenida Dr Lotf Joao Bassitt, 1900",
    "fid": 59,
    "fid_2": 7,
    "fid_3": 28,
    "gerente": "Luciana Cristina Machado Ferreira",
    "globalid": "{AAFB4DE2-C5BF-40C2-B817-7409E78B47F1}",
    "globalid_2": "{C588203C-658D-4C8F-B81B-29AAF7F32BFA}",
    "globalid_3": "fae9a688-6868-49bb-bcdd-53c85215b434",
    "googlemaps": "https://www.google.com.br/maps/dir//-20.8476725532619,-49.361998694089/@-20.8476725532619,-49.361998694089z",
    "h_coleta": " ",
    "h_entrega": " ",
    "h_farmacia": "7h as 17h",
    "h_unidade": "Houve remanejamento da força de trabalho para atendimentos prioritários",
    "h_vacina": "7h as 16:30h",
    "lat": "-20,8476725532619",
    "lon": "-49,361998694089",
    "nome": "UBS CIDADE JARDIM",
    "objectid_1": 22,
    "objectid_2": 23,
    "regiao": "HB",
    "regiao_2": "HB",
    "shape_ar_1": 50607353.93,
    "shape_le_1": 39874.26,
    "site": "http://saude.riopreto.sp.gov.br/transparencia/modules/mastop_publish/?tac=USDSIV_UBSF_Cida_Jard",
    "telefone": "3216-6199",
    "tipo": "UBS"
   },
   "type": "Feature"
  },
  {
   "geometry": {
    "coordinates": [
     -49.36197423777675,
     -20.748771953423866
    ],
    "type": "Point"
   },
   "id": 60,
   "properties": {
    "abrang": "RIO PRETO I",
    "abrangen_1": " ",
    "class": " ",
    "cod_abrg": " ",
    "cod_abrg_1": " ",
    "dia": " ",
    "email": " ",
    "endereco": "Rua Adrielle Caroline Amaral 350",
    "fid": 60,
    "fid_2": 0,
    "fid_3": 0,
    "gerente": " ",
    "globalid": " ",
    "globalid_2": " ",
    "globalid_3": "ec4fb152-e80c-4f52-aa19-33c8d7e17f3f",
    "googlemaps": " ",
    "h_coleta": " ",
    "h_entrega": " ",
    "h_farmacia": " ",
    "h_unidade": " ",
    "h_vacina": " ",
    "lat": " ",
    "lon": " ",
    "nome": "UBS SOLIDARIEDADE/RIO PRETO I",
    "objectid_1": 0,
    "objectid_2": 0,
    "regiao": "Bosque",
    "regiao_2": " ",
    "shape_ar_1": 0.0,
    "shape_le_1": 0.0,
    "site": " ",
    "telefone": "3215 3601",
    "tipo": "UBS"
   },
   "type": "Feature"
  },
  {
   "geometry": {
    "coordinates": [
     -49.39946150770824,
     -20.817291121182393
    ],
    "type": "Point"
   },
   "id": 61,
   "properties": {
    "abrang": "PARQUE INDUSTRIAL",
    "abrangen_1": " ",
    "class": " ",
    "cod_abrg": " ",
    "cod_abrg_1": " ",
    "dia": " ",
    "email": " ",
    "endereco": "Rua Raul de Carvalho, 2970",
    "fid": 61,
    "fid_2": 0,
    "fid_3": 0,
    "gerente": " ",
    "globalid": " ",
    "globalid_2": " ",
    "globalid_3": "9446699b-fd34-4c5c-b04e-8c9159fd4379",
    "googlemaps": " ",
    "h_coleta": " ",
    "h_entrega": " ",
    "h_farmacia": " ",
    "h_unidade": " ",
    "h_vacina": " ",
    "lat": " ",
    "lon": " ",
    "nome": "CONSELHO MUNICIPAL DE SAÚDE",
    "objectid_1": 0,
    "objectid_2": 0,
    "regiao": "Central",
    "regiao_2": " ",
    "shape_ar_1": 0.0,
    "shape_le_1": 0.0,
    "site": " ",
    "telefone": " ",
    "tipo": "CMS"
   },
   "type": "Feature"
  }
 ],
 "type": "FeatureCollection"
}