{
 "features": [
  {
   "geometry": {
    "coordinates": [
     [
      [
       -49.3397950818443,
       -20.688607171193123,
       0
      ],
      [
       -49.339919741097056,
       -20.685984973888086,
       0
      ],
      [
       -49.34597501616022,
       -20.684355330858594,
       0
      ],
      [
       -49.34620365036847,
       -20.685855498445356,
       0
      ],
      [
       -49.34667661049348,
       -20.685794191895102,
       0
      ],
      [
       -49.346777452593805,
       -20.686173768962924,
       0
      ],
      [
       -49.34630413550433,
       -20.686267994463336,
       0
      ],
      [
       -49.34640230129969,
       -20.686894463164634,
       0
      ],
      [
       -49.3397950818443,
       -20.688607171193123,
       0
      ]
     ]
    ],
    "type": "Polygon"
   },
   "id": 1,
   "properties": {
    "COLOR": 3,
    "ELEVATION": 0,
    "LAYER": "0",
    "LINETYPE": "Continuous",
    "LINEWT": 25,
    "OBJECTID": 1,
    "REFNAME": null,
    "SHAPE.AREA": 193401.408634945,
    "SHAPE.LEN": 2042.08007742951,
    "SJRP.PERÍMETROURBANO_PD2020.ENTITY": "LWPolyline"
   },
   "type": "Feature"
  },
  {
   "geometry": {
    "coordinates": [
     [
      [
       -49.30654842532896,
       -20.721934976970722,
       0
      ],
      [
       -49.3071493921448,
       -20.71976983699222,
       0
      ],
      [
       -49.309415360907,
       -20.72069892172188,
       0
      ],
      [
       -49.308918150492694,
       -20.722476435589503,
       0
      ],
      [
       -49.30756448175137,
       -20.722318215319678,
       0
      ],
      [
       -49.30654842532896,
       -20.721934976970722,
       0
      ]
     ]
    ],
    "type": "Polygon"
   },
   "id": 2,
   "properties": {
    "COLOR": 3,
    "ELEVATION": 0,
    "LAYER": "0",
    "LINETYPE": "Continuous",
    "LINEWT": 25,
    "OBJECTID": 2,
    "REFNAME": null,
    "SHAPE.AREA": 59411.316497125,
    "SHAPE.LEN": 964.8047626099191,
    "SJRP.PERÍMETROURBANO_PD2020.ENTITY": "LWPolyline"
   },
   "type": "Feature"
  },
  {
   "geometry": {
    "coordinates": [
     [
      [
       -49.33830725405886,
       -20.72270446880009,
       0
      ],
      [
       -49.327515223052714,
       -20.718414659736982,
       0
      ],
      [
       -49.328698406531004,
       -20.71647407844288,
       0
      ],
      [
       -49.33839766305087,
       -20.720503392630555,
       0
      ],
      [
       -49.33830725405886,
       -20.72270446880009,
       0
      ]
     ]
    ],
    "type": "Polygon"
   },
   "id": 3,
   "properties": {
    "COLOR": 3,
    "ELEVATION": 0,
    "LAYER": "0",
    "LINETYPE": "Continuous",
    "LINEWT": 25,
    "OBJECTID": 3,
    "REFNAME": null,
    "SHAPE.AREA": 275213.901559685,
    "SHAPE.LEN": 2816.23837988394,
    "SJRP.PERÍMETROURBANO_PD2020.ENTITY": "LWPolyline"
   },
   "type": "Feature"
  },
  {
   "geometry": {
    "coordinates": [
     [
      [
       -49.35514904036857,
       -20.72510729866647,
       0
      ],
      [
       -49.35555422268776,
       -20.72092693475142,
       0
      ],
      [
       -49.36283677813019,
       -20.72126219736203,
       0
      ],
      [
       -49.35852210736156,
       -20.725431439080392,
       0
      ],
      [
       -49.355960872799486,
       -20.725637805682133,
       0
      ],
      [
       -49.35514904036857,
       -20.72510729866647,
       0
      ]
     ]
    ],
    "type": "Polygon"
   },
   "id": 4,
   "properties": {
    "COLOR": 3,
    "ELEVATION": 0,
    "LAYER": "0",
    "LINETYPE": "Continuous",
    "LINEWT": 25,
    "OBJECTID": 4,
    "REFNAME": null,
    "SHAPE.AREA": 274253.10221549,
    "SHAPE.LEN": 2239.08013876443,
    "SJRP.PERÍMETROURBANO_PD2020.ENTITY": "LWPolyline"
   },
   "type": "Feature"
  },
  {
   "geometry": {
    "coordinates": [
     [
      [
       -49.332084818696266,
       -20.711021661952486,
       0
      ],
      [
       -49.33190467319111,
       -20.70780698194817,
       0
      ],
      [
       -49.33647279102113,
       -20.70761619244891,
       0
      ],
      [
       -49.3388472294959,
       -20.707516974678217,
       0
      ],
      [
       -49.33876085947146,
       -20.71072504916641,
       0
      ],
      [
       -49.333864142944236,
       -20.710660353459698,
       0
      ],
      [
       -49.332084818696266,
       -20.711021661952486,
       0
      ]
     ]
    ],
    "type": "Polygon"
   },
   "id": 5,
   "properties": {
    "COLOR": 3,
    "ELEVATION": 0,
    "LAYER": "0",
    "LINETYPE": "Continuous",
    "LINEWT": 25,
    "OBJECTID": 5,
    "REFNAME": null,
    "SHAPE.AREA": 241473.382922095,
    "SHAPE.LEN": 2135.31704028571,
    "SJRP.PERÍMETROURBANO_PD2020.ENTITY": "LWPolyline"
   },
   "type": "Feature"
  },
  {
   "geometry": {
    "coordinates": [
     [
      [
       -49.34464208746689,
       -20.712216869675235,
       0
      ],
      [
       -49.345822042075284,
       -20.705358901219235,
       0
      ],
      [
       -49.346779754495955,
       -20.705583201698257,
       0
      ],
      [
       -49.34903569508893,
       -20.70018233379983,
       0
      ],
      [
       -49.352467363169495,
       -20.699543630784213,
       0
      ],
      [
       -49.34992124464362,
       -20.708859751405523,
       0
      ],
      [
       -49.35059540667717,
       -20.70889159764028,
       0
      ],
      [
       -49.350515353243146,
       -20.711302489599245,
       0
      ],
      [
       -49.34981429443153,
       -20.71126192237126,
       0
      ],
      [
       -49.34979137424086,
       -20.71254792004177,
       0
      ],
      [
       -49.34464208746689,
       -20.712216869675235,
       0
      ]
     ]
    ],
    "type": "Polygon"
   },
   "id": 6,
   "properties": {
    "COLOR": 3,
    "ELEVATION": 0,
    "LAYER": "0",
    "LINETYPE": "Continuous",
    "LINEWT": 25,
    "OBJECTID": 6,
    "REFNAME": null,
    "SHAPE.AREA": 643781.575127625,
    "SHAPE.LEN": 4034.27255077616,
    "SJRP.PERÍMETROURBANO_PD2020.ENTITY": "LWPolyline"
   },
   "type": "Feature"
  },
  {
   "geometry": {
    "coordinates": [
     [
      [
       -49.332908590257375,
       -20.70578429881726,
       0
      ],
      [
       -49.33272281152038,
       -20.704327366098973,
       0
      ],
      [
       -49.327474503112875,
       -20.704442886737233,
       0
      ],
      [
       -49.32750307856856,
       -20.703629558043232,
       0
      ],
      [
       -49.326422957968155,
       -20.703563590410607,
       0
      ],
      [
       -49.32628748409783,
       -20.70186478179217,
       0
      ],
      [
       -49.329066342749186,
       -20.702646217085668,
       0
      ],
      [
       -49.33897054183323,
       -20.702530356229964,
       0
      ],
      [
       -49.33886851365047,
       -20.705588864454384,
       0
      ],
      [
       -49.332908590257375,
       -20.70578429881726,
       0
      ]
     ]
    ],
    "type": "Polygon"
   },
   "id": 7,
   "properties": {
    "COLOR": 3,
    "ELEVATION": 0,
    "LAYER": "0",
    "LINETYPE": "Continuous",
    "LINEWT": 25,
    "OBJECTID": 7,
    "REFNAME": null,
    "SHAPE.AREA": 351678.245796325,
    "SHAPE.LEN": 3394.72510236477,
    "SJRP.PERÍMETROURBANO_PD2020.ENTITY": "LWPolyline"
   },
   "type": "Feature"
  },
  {
   "geometry": {
    "coordinates": [
     [
      [
       -49.32665050102838,
       -20.700736670494802,
       0
      ],
      [
       -49.32780052544605,
       -20.698311142988967,
       0
      ],
      [
       -49.33036680525025,
       -20.69515144980633,
       0
      ],
      [
       -49.3308780734598,
       -20.695119422597053,
       0
      ],
      [
       -49.331525493575704,
       -20.697011787683824,
       0
      ],
      [
       -49.333165487138736,
       -20.69798920392061,
       0
      ],
      [
       -49.3335601904312,
       -20.699090661924853,
       0
      ],
      [
       -49.334199926217515,
       -20.702233676648138,
       0
      ],
      [
       -49.3267377911275,
       -20.701736035162945,
       0
      ],
      [
       -49.32665050102838,
       -20.700736670494802,
       0
      ]
     ]
    ],
    "type": "Polygon"
   },
   "id": 8,
   "properties": {
    "COLOR": 3,
    "ELEVATION": 0,
    "LAYER": "0",
    "LINETYPE": "Continuous",
    "LINEWT": 25,
    "OBJECTID": 8,
    "REFNAME": null,
    "SHAPE.AREA": 382225.33021784,
    "SHAPE.LEN": 2583.31329502349,
    "SJRP.PERÍMETROURBANO_PD2020.ENTITY": "LWPolyline"
   },
   "type": "Feature"
  },
  {
   "geometry": {
    "coordinates": [
     [
      [
       -49.29145533534507,
       -20.707830317184392,
       0
      ],
      [
       -49.29185991827638,
       -20.704032606918254,
       0
      ],
      [
       -49.29504776782423,
       -20.704246129290517,
       0
      ],
      [
       -49.29525535267878,
       -20.70297034958322,
       0
      ],
      [
       -49.29729300282784,
       -20.703478720956447,
       0
      ],
      [
       -49.300477220953724,
       -20.70289885639205,
       0
      ],
      [
       -49.300378140130796,
       -20.703586366111324,
       0
      ],
      [
       -49.30166718658122,
       -20.70335632876566,
       0
      ],
      [
       -49.30149640881587,
       -20.706245650112006,
       0
      ],
      [
       -49.296915628315844,
       -20.70572851646973,
       0
      ],
      [
       -49.29690364932458,
       -20.705978381112363,
       0
      ],
      [
       -49.29500067558967,
       -20.70588260493398,
       0
      ],
      [
       -49.29489103609659,
       -20.70690023845309,
       0
      ],
      [
       -49.29575648335174,
       -20.707000567833695,
       0
      ],
      [
       -49.29574394357816,
       -20.710201260813008,
       0
      ],
      [
       -49.29197885478399,
       -20.71031045642733,
       0
      ],
      [
       -49.29188350648433,
       -20.709859203766573,
       0
      ],
      [
       -49.29049282662089,
       -20.71021343623123,
       0
      ],
      [
       -49.29066876938366,
       -20.708843638485412,
       0
      ],
      [
       -49.29225848299185,
       -20.708883647527358,
       0
      ],
      [
       -49.29251468752449,
       -20.707907736831462,
       0
      ],
      [
       -49.29145533534507,
       -20.707830317184392,
       0
      ]
     ]
    ],
    "type": "Polygon"
   },
   "id": 9,
   "properties": {
    "COLOR": 3,
    "ELEVATION": 0,
    "LAYER": "0",
    "LINETYPE": "Continuous",
    "LINEWT": 25,
    "OBJECTID": 9,
    "REFNAME": null,
    "SHAPE.AREA": 474276.99878613,
    "SHAPE.LEN": 4388.77021299663,
    "SJRP.PERÍMETROURBANO_PD2020.ENTITY": "LWPolyline"
   },
   "type": "Feature"
  },
  {
   "geometry": {
    "coordinates": [
     [
      [
       -49.30032751863901,
       -20.69415014191116,
       0
      ],
      [
       -49.30051875546823,
       -20.692544169256465,
       0
      ],
      [
       -49.30238301526316,
       -20.692469341797754,
       0
      ],
      [
       -49.30229213774862,
       -20.693959795046577,
       0
      ],
      [
       -49.30032751863901,
       -20.69415014191116,
       0
      ]
     ]
    ],
    "type": "Polygon"
   },
   "id": 10,
   "properties": {
    "COLOR": 3,
    "ELEVATION": 0,
    "LAYER": "0",
    "LINETYPE": "Continuous",
    "LINEWT": 25,
    "OBJECTID": 10,
    "REFNAME": null,
    "SHAPE.AREA": 33970.39333353,
    "SHAPE.LEN": 744.3453811386601,
    "SJRP.PERÍMETROURBANO_PD2020.ENTITY": "LWPolyline"
   },
   "type": "Feature"
  },
  {
   "geometry": {
    "coordinates": [
     [
      [
       -49.2969028542868,
       -20.692335005479233,
       0
      ],
      [
       -49.297391991060834,
       -20.685677721762932,
       0
      ],
      [
       -49.29806746727704,
       -20.685683209772325,
       0
      ],
      [
       -49.29785180143106,
       -20.689112294897416,
       0
      ],
      [
       -49.299590197033446,
       -20.68921309737909,
       0
      ],
      [
       -49.29937711972479,
       -20.69247809588943,
       0
      ],
      [
       -49.2986699454728,
       -20.69244976814837,
       0
      ],
      [
       -49.29762233953697,
       -20.70244754827212,
       0
      ],
      [
       -49.295717788954136,
       -20.70197041959278,
       0
      ],
      [
       -49.29661772793928,
       -20.692284076797048,
       0
      ],
      [
       -49.2969028542868,
       -20.692335005479233,
       0
      ]
     ]
    ],
    "type": "Polygon"
   },
   "id": 11,
   "properties": {
    "COLOR": 3,
    "ELEVATION": 0,
    "LAYER": "0",
    "LINETYPE": "Continuous",
    "LINEWT": 25,
    "OBJECTID": 11,
    "REFNAME": null,
    "SHAPE.AREA": 348368.833910085,
    "SHAPE.LEN": 4231.10556190685,
    "SJRP.PERÍMETROURBANO_PD2020.ENTITY": "LWPolyline"
   },
   "type": "Feature"
  },
  {
   "geometry": {
    "coordinates": [
     [
      [
       -49.31495788908374,
       -20.7346027647674,
       0
      ],
      [
       -49.31032350293925,
       -20.728778552941442,
       0
      ],
      [
       -49.31724268883147,
       -20.72808883240496,
       0
      ],
      [
       -49.31734449953976,
       -20.729125733075378,
       0
      ],
      [
       -49.32032568546089,
       -20.72917229936396,
       0
      ],
      [
       -49.320298195146535,
       -20.730076737796157,
       0
      ],
      [
       -49.31934786761782,
       -20.730066294282942,
       0
      ],
      [
       -49.31927061275625,
       -20.733320259851705,
       0
      ],
      [
       -49.31999389642272,
       -20.733420686239462,
       0
      ],
      [
       -49.319942995838986,
       -20.73453614015708,
       0
      ],
      [
       -49.31722810904661,
       -20.73433011694721,
       0
      ],
      [
       -49.31495788908374,
       -20.7346027647674,
       0
      ]
     ]
    ],
    "type": "Polygon"
   },
   "id": 12,
   "properties": {
    "COLOR": 3,
    "ELEVATION": 0,
    "LAYER": "0",
    "LINETYPE": "Continuous",
    "LINEWT": 25,
    "OBJECTID": 12,
    "REFNAME": null,
    "SHAPE.AREA": 478303.086925545,
    "SHAPE.LEN": 3237.28936638637,
    "SJRP.PERÍMETROURBANO_PD2020.ENTITY": "LWPolyline"
   },
   "type": "Feature"
  },
  {
   "geometry": {
    "coordinates": [
     [
      [
       -49.305663718380416,
       -20.745863114197185,
       0
      ],
      [
       -49.30541206897737,
       -20.74430886081393,
       0
      ],
      [
       -49.30782156888799,
       -20.74330238936546,
       0
      ],
      [
       -49.308680914826105,
       -20.74381817140543,
       0
      ],
      [
       -49.30885163707043,
       -20.745693973898206,
       0
      ],
      [
       -49.305663718380416,
       -20.745863114197185,
       0
      ]
     ]
    ],
    "type": "Polygon"
   },
   "id": 13,
   "properties": {
    "COLOR": 3,
    "ELEVATION": 0,
    "LAYER": "0",
    "LINETYPE": "Continuous",
    "LINEWT": 25,
    "OBJECTID": 13,
    "REFNAME": null,
    "SHAPE.AREA": 76793.34745142,
    "SHAPE.LEN": 1095.74919245587,
    "SJRP.PERÍMETROURBANO_PD2020.ENTITY": "LWPolyline"
   },
   "type": "Feature"
  },
  {
   "geometry": {
    "coordinates": [
     [
      [
       -49.325784812337645,
       -20.878801330887434,
       0
      ],
      [
       -49.325797960991395,
       -20.876522844921805,
       0
      ],
      [
       -49.326910411498936,
       -20.87616438121349,
       0
      ],
      [
       -49.32840684047306,
       -20.879105583372414,
       0
      ],
      [
       -49.32729776459955,
       -20.879894321340743,
       0
      ],
      [
       -49.32702695764214,
       -20.879727644921935,
       0
      ],
      [
       -49.32640458850699,
       -20.878520602612234,
       0
      ],
      [
       -49.325784812337645,
       -20.878801330887434,
       0
      ]
     ]
    ],
    "type": "Polygon"
   },
   "id": 14,
   "properties": {
    "COLOR": 3,
    "ELEVATION": 0,
    "LAYER": "0",
    "LINETYPE": "Continuous",
    "LINEWT": 25,
    "OBJECTID": 14,
    "REFNAME": null,
    "SHAPE.AREA": 65162.80844575,
    "SHAPE.LEN": 1134.05411677086,
    "SJRP.PERÍMETROURBANO_PD2020.ENTITY": "LWPolyline"
   },
   "type": "Feature"
  },
  {
   "geometry": {
    "coordinates": [
     [
      [
       -49.31921836217387,
       -20.885899630139463,
       0
      ],
      [
       -49.320800737171616,
       -20.884017558133188,
       0
      ],
      [
       -49.32748269588585,
       -20.8846074974006,
       0
      ],
      [
       -49.32742500201646,
       -20.885891010089015,
       0
      ],
      [
       -49.328623161781,
       -20.8859934117295,
       0
      ],
      [
       -49.32851319018648,
       -20.886726235651388,
       0
      ],
      [
       -49.31921836217387,
       -20.885899630139463,
       0
      ]
     ]
    ],
    "type": "Polygon"
   },
   "id": 15,
   "properties": {
    "COLOR": 3,
    "ELEVATION": 0,
    "LAYER": "0",
    "LINETYPE": "Continuous",
    "LINEWT": 25,
    "OBJECTID": 15,
    "REFNAME": null,
    "SHAPE.AREA": 183133.47337938,
    "SHAPE.LEN": 2284.62561224338,
    "SJRP.PERÍMETROURBANO_PD2020.ENTITY": "LWPolyline"
   },
   "type": "Feature"
  },
  {
   "geometry": {
    "coordinates": [
     [
      [
       -49.31342612121005,
       -20.88399286931776,
       0
      ],
      [
       -49.3113199422854,
       -20.88229440142245,
       0
      ],
      [
       -49.31260039169853,
       -20.879683726672948,
       0
      ],
      [
       -49.31562318882448,
       -20.881590993632994,
       0
      ],
      [
       -49.31342612121005,
       -20.88399286931776,
       0
      ]
     ]
    ],
    "type": "Polygon"
   },
   "id": 16,
   "properties": {
    "COLOR": 3,
    "ELEVATION": 0,
    "LAYER": "0",
    "LINETYPE": "Continuous",
    "LINEWT": 25,
    "OBJECTID": 16,
    "REFNAME": null,
    "SHAPE.AREA": 110152.218258105,
    "SHAPE.LEN": 1336.5373221959399,
    "SJRP.PERÍMETROURBANO_PD2020.ENTITY": "LWPolyline"
   },
   "type": "Feature"
  },
  {
   "geometry": {
    "coordinates": [
     [
      [
       -49.28760087558011,
       -20.86076989529735,
       0
      ],
      [
       -49.287716151249114,
       -20.85886616963903,
       0
      ],
      [
       -49.2892897739177,
       -20.85867643474517,
       0
      ],
      [
       -49.29164948656988,
       -20.859314203380336,
       0
      ],
      [
       -49.29555966133666,
       -20.84920663790377,
       0
      ],
      [
       -49.30011830641396,
       -20.851467322043685,
       0
      ],
      [
       -49.29742822565169,
       -20.8576827724023,
       0
      ],
      [
       -49.29573538703092,
       -20.860889548983966,
       0
      ],
      [
       -49.29416247291518,
       -20.86386900129103,
       0
      ],
      [
       -49.29343293319959,
       -20.863593721289515,
       0
      ],
      [
       -49.29239354310073,
       -20.865990126864936,
       0
      ],
      [
       -49.29162062737671,
       -20.868317897274814,
       0
      ],
      [
       -49.28722091346245,
       -20.86822620112968,
       0
      ],
      [
       -49.2874449291325,
       -20.863830309917507,
       0
      ],
      [
       -49.28760087558011,
       -20.86076989529735,
       0
      ]
     ]
    ],
    "type": "Polygon"
   },
   "id": 17,
   "properties": {
    "COLOR": 3,
    "ELEVATION": 0,
    "LAYER": "0",
    "LINETYPE": "Continuous",
    "LINEWT": 25,
    "OBJECTID": 17,
    "REFNAME": null,
    "SHAPE.AREA": 1229081.37415756,
    "SHAPE.LEN": 5789.07949438235,
    "SJRP.PERÍMETROURBANO_PD2020.ENTITY": "LWPolyline"
   },
   "type": "Feature"
  },
  {
   "geometry": {
    "coordinates": [
     [
      [
       -49.298276598992544,
       -20.836313127715524,
       0
      ],
      [
       -49.28762579476736,
       -20.82946390856125,
       0
      ],
      [
       -49.28937589326667,
       -20.828481064769047,
       0
      ],
      [
       -49.29911861796056,
       -20.835350310061866,
       0
      ],
      [
       -49.298276598992544,
       -20.836313127715524,
       0
      ]
     ]
    ],
    "type": "Polygon"
   },
   "id": 18,
   "properties": {
    "COLOR": 3,
    "ELEVATION": 0,
    "LAYER": "0",
    "LINETYPE": "Continuous",
    "LINEWT": 25,
    "OBJECTID": 18,
    "REFNAME": null,
    "SHAPE.AREA": 216758.2843908,
    "SHAPE.LEN": 2960.8826521652504,
    "SJRP.PERÍMETROURBANO_PD2020.ENTITY": "LWPolyline"
   },
   "type": "Feature"
  },
  {
   "geometry": {
    "coordinates": [
     [
      [
       -49.39031737551505,
       -20.910185701762273,
       0
      ],
      [
       -49.39007517046321,
       -20.902558533095295,
       0
      ],
      [
       -49.391542239406846,
       -20.902504578226324,
       0
      ],
      [
       -49.39095832023062,
       -20.898337060489112,
       0
      ],
      [
       -49.39303775172033,
       -20.898433386631066,
       0
      ],
      [
       -49.392601598780985,
       -20.89458821623681,
       0
      ],
      [
       -49.39477274329925,
       -20.894876659588,
       0
      ],
      [
       -49.39530665998327,
       -20.901184523134738,
       0
      ],
      [
       -49.39397514940154,
       -20.90921632943708,
       0
      ],
      [
       -49.39031737551505,
       -20.910185701762273,
       0
      ]
     ]
    ],
    "type": "Polygon"
   },
   "id": 19,
   "properties": {
    "COLOR": 3,
    "ELEVATION": 0,
    "LAYER": "0",
    "LINETYPE": "Continuous",
    "LINEWT": 25,
    "OBJECTID": 19,
    "REFNAME": null,
    "SHAPE.AREA": 631240.70967697,
    "SHAPE.LEN": 4331.537690163721,
    "SJRP.PERÍMETROURBANO_PD2020.ENTITY": "LWPolyline"
   },
   "type": "Feature"
  },
  {
   "geometry": {
    "coordinates": [
     [
      [
       -49.37935679549218,
       -20.91639721935989,
       0
      ],
      [
       -49.37908462767377,
       -20.913267697730873,
       0
      ],
      [
       -49.379590073866225,
       -20.91310346999555,
       0
      ],
      [
       -49.379083167086144,
       -20.90838289660991,
       0
      ],
      [
       -49.38011389634945,
       -20.908218323289848,
       0
      ],
      [
       -49.38079375372209,
       -20.914923441403293,
       0
      ],
      [
       -49.37996344707687,
       -20.915186004692288,
       0
      ],
      [
       -49.37973779461146,
       -20.916096592589323,
       0
      ],
      [
       -49.37935679549218,
       -20.91639721935989,
       0
      ]
     ]
    ],
    "type": "Polygon"
   },
   "id": 20,
   "properties": {
    "COLOR": 3,
    "ELEVATION": 0,
    "LAYER": "0",
    "LINETYPE": "Continuous",
    "LINEWT": 25,
    "OBJECTID": 20,
    "REFNAME": null,
    "SHAPE.AREA": 99222.111617455,
    "SHAPE.LEN": 2029.37487806502,
    "SJRP.PERÍMETROURBANO_PD2020.ENTITY": "LWPolyline"
   },
   "type": "Feature"
  },
  {
   "geometry": {
    "coordinates": [
     [
      [
       -49.358320529475215,
       -20.926061989208055,
       0
      ],
      [
       -49.35620291931879,
       -20.92265670341956,
       0
      ],
      [
       -49.357408254586424,
       -20.921194492148675,
       0
      ],
      [
       -49.35786555626142,
       -20.920183286989616,
       0
      ],
      [
       -49.35818119115273,
       -20.919656660949066,
       0
      ],
      [
       -49.36064977068308,
       -20.922699462030064,
       0
      ],
      [
       -49.36005997094371,
       -20.92316862003685,
       0
      ],
      [
       -49.35953415980918,
       -20.923838644003812,
       0
      ],
      [
       -49.35913148592332,
       -20.92487351445097,
       0
      ],
      [
       -49.35901934339439,
       -20.92582842412167,
       0
      ],
      [
       -49.358320529475215,
       -20.926061989208055,
       0
      ]
     ]
    ],
    "type": "Polygon"
   },
   "id": 21,
   "properties": {
    "COLOR": 3,
    "ELEVATION": 0,
    "LAYER": "0",
    "LINETYPE": "Continuous",
    "LINEWT": 25,
    "OBJECTID": 21,
    "REFNAME": null,
    "SHAPE.AREA": 158853.89917517,
    "SHAPE.LEN": 1731.5791441974602,
    "SJRP.PERÍMETROURBANO_PD2020.ENTITY": "LWPolyline"
   },
   "type": "Feature"
  },
  {
   "geometry": {
    "coordinates": [
     [
      [
       -49.35818119115273,
       -20.919656660949066,
       0
      ],
      [
       -49.348291607501345,
       -20.907582762539878,
       0
      ],
      [
       -49.34938704467164,
       -20.90697331353578,
       0
      ],
      [
       -49.35019169386236,
       -20.906525637068345,
       0
      ],
      [
       -49.35076319061098,
       -20.90659687921729,
       0
      ],
      [
       -49.35114251347662,
       -20.906797713807794,
       0
      ],
      [
       -49.35536566432493,
       -20.911975875788414,
       0
      ],
      [
       -49.35745336555327,
       -20.90983909168673,
       0
      ],
      [
       -49.35910888981085,
       -20.911825978602042,
       0
      ],
      [
       -49.3599854292933,
       -20.91281411675971,
       0
      ],
      [
       -49.36076155564198,
       -20.913784464158365,
       0
      ],
      [
       -49.36050284752483,
       -20.914558741582134,
       0
      ],
      [
       -49.35978334661759,
       -20.9157016950406,
       0
      ],
      [
       -49.35932905442945,
       -20.916815292300615,
       0
      ],
      [
       -49.3591959604318,
       -20.917572600290537,
       0
      ],
      [
       -49.35897404240024,
       -20.918472934911875,
       0
      ],
      [
       -49.358639434672604,
       -20.919158975521672,
       0
      ],
      [
       -49.35818119115273,
       -20.919656660949066,
       0
      ]
     ]
    ],
    "type": "Polygon"
   },
   "id": 22,
   "properties": {
    "COLOR": 3,
    "ELEVATION": 0,
    "LAYER": "0",
    "LINETYPE": "Continuous",
    "LINEWT": 25,
    "OBJECTID": 22,
    "REFNAME": null,
    "SHAPE.AREA": 655885.03855498,
    "SHAPE.LEN": 4333.93116765385,
    "SJRP.PERÍMETROURBANO_PD2020.ENTITY": "LWPolyline"
   },
   "type": "Feature"
  },
  {
   "geometry": {
    "coordinates": [
     [
      [
       -49.3413903031471,
       -20.901771996051938,
       0
      ],
      [
       -49.34296767885604,
       -20.897917539370994,
       0
      ],
      [
       -49.34339772342778,
       -20.896866647333848,
       0
      ],
      [
       -49.34623360069115,
       -20.899366574532202,
       0
      ],
      [
       -49.34485353721414,
       -20.901065835781562,
       0
      ],
      [
       -49.34332161079188,
       -20.90281689736677,
       0
      ],
      [
       -49.3413903031471,
       -20.901771996051938,
       0
      ]
     ]
    ],
    "type": "Polygon"
   },
   "id": 23,
   "properties": {
    "COLOR": 3,
    "ELEVATION": 0,
    "LAYER": "0",
    "LINETYPE": "Continuous",
    "LINEWT": 25,
    "OBJECTID": 23,
    "REFNAME": null,
    "SHAPE.AREA": 165987.471656235,
    "SHAPE.LEN": 1705.85670479786,
    "SJRP.PERÍMETROURBANO_PD2020.ENTITY": "LWPolyline"
   },
   "type": "Feature"
  },
  {
   "geometry": {
    "coordinates": [
     [
      [
       -49.30366978514907,
       -20.789927494206463,
       0
      ],
      [
       -49.30942977283598,
       -20.779234379507535,
       0
      ],
      [
       -49.31194260186268,
       -20.77463455322816,
       0
      ],
      [
       -49.31006519673712,
       -20.772252181886557,
       0
      ],
      [
       -49.31003201427729,
       -20.771186768334378,
       0
      ],
      [
       -49.30978613242735,
       -20.77092811140967,
       0
      ],
      [
       -49.302632709441106,
       -20.76688994407295,
       0
      ],
      [
       -49.30393566087198,
       -20.76458649652143,
       0
      ],
      [
       -49.305896857007944,
       -20.76421346875513,
       0
      ],
      [
       -49.306170754272976,
       -20.761427137363544,
       0
      ],
      [
       -49.30824503930061,
       -20.7622198134109,
       0
      ],
      [
       -49.311012016135514,
       -20.75615880871335,
       0
      ],
      [
       -49.311557287571134,
       -20.756825784869303,
       0
      ],
      [
       -49.312029208234904,
       -20.75687012493051,
       0
      ],
      [
       -49.312030755714105,
       -20.756789655650653,
       0
      ],
      [
       -49.31733939428181,
       -20.75728778797799,
       0
      ],
      [
       -49.31762005820551,
       -20.754228861705776,
       0
      ],
      [
       -49.315493327506104,
       -20.752745539174732,
       0
      ],
      [
       -49.31595333088475,
       -20.751981981485724,
       0
      ],
      [
       -49.31535180272021,
       -20.751556817375132,
       0
      ],
      [
       -49.318035899280986,
       -20.75009341264845,
       0
      ],
      [
       -49.3181231275602,
       -20.75242859590056,
       0
      ],
      [
       -49.321546860314534,
       -20.753333023204025,
       0
      ],
      [
       -49.3240323683609,
       -20.747409620310524,
       0
      ],
      [
       -49.32287275212911,
       -20.746069230945917,
       0
      ],
      [
       -49.323948991434484,
       -20.73484774318408,
       0
      ],
      [
       -49.32553717396575,
       -20.732135019167846,
       0
      ],
      [
       -49.33860861213687,
       -20.732760282139616,
       0
      ],
      [
       -49.339273201408645,
       -20.717246421498377,
       0
      ],
      [
       -49.347154764954155,
       -20.71770906019387,
       0
      ],
      [
       -49.350930570344936,
       -20.717223045446264,
       0
      ],
      [
       -49.360067639450044,
       -20.709905520361826,
       0
      ],
      [
       -49.36127824518108,
       -20.71308350742452,
       0
      ],
      [
       -49.3618538442464,
       -20.71387802327284,
       0
      ],
      [
       -49.36233819966131,
       -20.71609307904335,
       0
      ],
      [
       -49.355187463179305,
       -20.72022405977819,
       0
      ],
      [
       -49.35438684779011,
       -20.728096568475383,
       0
      ],
      [
       -49.36838166507011,
       -20.727130720658828,
       0
      ],
      [
       -49.37003887692295,
       -20.724904224678543,
       0
      ],
      [
       -49.37689242442311,
       -20.722539680783612,
       0
      ],
      [
       -49.380527985651504,
       -20.718523519490756,
       0
      ],
      [
       -49.381534700469125,
       -20.717777913865515,
       0
      ],
      [
       -49.38537139332656,
       -20.718219067585938,
       0
      ],
      [
       -49.38695168785317,
       -20.709522057155503,
       0
      ],
      [
       -49.38804456798134,
       -20.708641772028873,
       0
      ],
      [
       -49.38968948841654,
       -20.707767042732726,
       0
      ],
      [
       -49.393057730790915,
       -20.70672613074359,
       0
      ],
      [
       -49.39323158591251,
       -20.703890563716154,
       0
      ],
      [
       -49.3948682415386,
       -20.704149928187952,
       0
      ],
      [
       -49.40149529584585,
       -20.71528817451381,
       0
      ],
      [
       -49.40495891864611,
       -20.71633718087463,
       0
      ],
      [
       -49.40438007893441,
       -20.719663805527087,
       0
      ],
      [
       -49.399778442364195,
       -20.721826059152527,
       0
      ],
      [
       -49.40016586225034,
       -20.72507573188309,
       0
      ],
      [
       -49.42150226515956,
       -20.72718836628382,
       0
      ],
      [
       -49.42644766326654,
       -20.72584490456211,
       0
      ],
      [
       -49.4312111618016,
       -20.72577449216354,
       0
      ],
      [
       -49.43161790293477,
       -20.720819788623,
       0
      ],
      [
       -49.43777462719936,
       -20.719531154865436,
       0
      ],
      [
       -49.440224759391704,
       -20.713226928729355,
       0
      ],
      [
       -49.446844491210484,
       -20.709944244522543,
       0
      ],
      [
       -49.45535363591494,
       -20.718366489808375,
       0
      ],
      [
       -49.45015203914601,
       -20.728992315596695,
       0
      ],
      [
       -49.456204127676045,
       -20.729236800380484,
       0
      ],
      [
       -49.455275047858976,
       -20.733970394688185,
       0
      ],
      [
       -49.448579736299095,
       -20.740646673425648,
       0
      ],
      [
       -49.4417070551572,
       -20.7356588231515,
       0
      ],
      [
       -49.43508036151704,
       -20.73561299237439,
       0
      ],
      [
       -49.433513312465706,
       -20.73498992926726,
       0
      ],
      [
       -49.436462905636006,
       -20.742753998444623,
       0
      ],
      [
       -49.435408761620174,
       -20.74598315742244,
       0
      ],
      [
       -49.43962543734256,
       -20.7496327227407,
       0
      ],
      [
       -49.44206189633618,
       -20.750974987535255,
       0
      ],
      [
       -49.44547013378701,
       -20.754027647865428,
       0
      ],
      [
       -49.445919829477184,
       -20.759315675792926,
       0
      ],
      [
       -49.44546076104472,
       -20.761964522483193,
       0
      ],
      [
       -49.44577885533419,
       -20.763162446179777,
       0
      ],
      [
       -49.446905895035236,
       -20.764773998050607,
       0
      ],
      [
       -49.452697277618654,
       -20.77125725435714,
       0
      ],
      [
       -49.453033323015255,
       -20.773060242349885,
       0
      ],
      [
       -49.45251910516148,
       -20.775458711547348,
       0
      ],
      [
       -49.45371839374551,
       -20.777477199023675,
       0
      ],
      [
       -49.454523290717304,
       -20.778297073196605,
       0
      ],
      [
       -49.45517353821595,
       -20.77933067408242,
       0
      ],
      [
       -49.459288863780394,
       -20.78701595990698,
       0
      ],
      [
       -49.45952246301447,
       -20.788327002822985,
       0
      ],
      [
       -49.45898438477416,
       -20.788527997579692,
       0
      ],
      [
       -49.44584360504765,
       -20.78042103088633,
       0
      ],
      [
       -49.44554553908516,
       -20.784744635179422,
       0
      ],
      [
       -49.44508833535154,
       -20.78595943793012,
       0
      ],
      [
       -49.44798287576662,
       -20.78705405497654,
       0
      ],
      [
       -49.44758738356166,
       -20.79435295402835,
       0
      ],
      [
       -49.44456854374201,
       -20.792484845684434,
       0
      ],
      [
       -49.44007699472423,
       -20.799566835456236,
       0
      ],
      [
       -49.439914707902076,
       -20.80708582510055,
       0
      ],
      [
       -49.43926632423315,
       -20.810774460721547,
       0
      ],
      [
       -49.44018838635806,
       -20.81247407503283,
       0
      ],
      [
       -49.444908692087246,
       -20.816025951235456,
       0
      ],
      [
       -49.44521611604769,
       -20.816417727844787,
       0
      ],
      [
       -49.440443397956415,
       -20.816639234894527,
       0
      ],
      [
       -49.4376724662085,
       -20.81734249894396,
       0
      ],
      [
       -49.438728866857865,
       -20.819380219476667,
       0
      ],
      [
       -49.44026289655746,
       -20.82099553235716,
       0
      ],
      [
       -49.43358786703737,
       -20.826120187204097,
       0
      ],
      [
       -49.42844060079416,
       -20.829329688500508,
       0
      ],
      [
       -49.426596251372686,
       -20.831240598592416,
       0
      ],
      [
       -49.424992431085656,
       -20.833008419956048,
       0
      ],
      [
       -49.425456320464974,
       -20.833320177961028,
       0
      ],
      [
       -49.427070949097704,
       -20.83909136358673,
       0
      ],
      [
       -49.43006472623543,
       -20.838455921308583,
       0
      ],
      [
       -49.430023894795596,
       -20.838834861227344,
       0
      ],
      [
       -49.429777071219426,
       -20.841796270527595,
       0
      ],
      [
       -49.429389180853015,
       -20.842549172691534,
       0
      ],
      [
       -49.42754878345145,
       -20.84593021279625,
       0
      ],
      [
       -49.42283641845272,
       -20.841173275974917,
       0
      ],
      [
       -49.41930870793501,
       -20.84381064825641,
       0
      ],
      [
       -49.42011741854663,
       -20.845195938903093,
       0
      ],
      [
       -49.420915430855935,
       -20.847039118798996,
       0
      ],
      [
       -49.42085759828701,
       -20.847539065242337,
       0
      ],
      [
       -49.421019851607674,
       -20.84777204804859,
       0
      ],
      [
       -49.424887216011875,
       -20.849226466724133,
       0
      ],
      [
       -49.42581966544947,
       -20.850023759454533,
       0
      ],
      [
       -49.42725954848105,
       -20.852436880671036,
       0
      ],
      [
       -49.43165192092107,
       -20.850641607867217,
       0
      ],
      [
       -49.432978805145,
       -20.85301107347245,
       0
      ],
      [
       -49.433185624908496,
       -20.853909237998284,
       0
      ],
      [
       -49.43321447674491,
       -20.854805773450824,
       0
      ],
      [
       -49.428348044779625,
       -20.855764984412914,
       0
      ],
      [
       -49.42826370038214,
       -20.856540976942338,
       0
      ],
      [
       -49.430269427289225,
       -20.860200978014028,
       0
      ],
      [
       -49.43036648910045,
       -20.861747751454054,
       0
      ],
      [
       -49.427079474086774,
       -20.86175208564241,
       0
      ],
      [
       -49.427110857802774,
       -20.862309402291583,
       0
      ],
      [
       -49.42357178917338,
       -20.86207765468383,
       0
      ],
      [
       -49.415735819873355,
       -20.85994643987883,
       0
      ],
      [
       -49.41565009196869,
       -20.860356359699534,
       0
      ],
      [
       -49.41732486576433,
       -20.86208341823043,
       0
      ],
      [
       -49.41577795969094,
       -20.865069465760808,
       0
      ],
      [
       -49.41646307973519,
       -20.867024333499376,
       0
      ],
      [
       -49.41691465798736,
       -20.86882760738138,
       0
      ],
      [
       -49.42946287839837,
       -20.865759832734497,
       0
      ],
      [
       -49.4300556274272,
       -20.866637394087334,
       0
      ],
      [
       -49.428365852745955,
       -20.869968940550233,
       0
      ],
      [
       -49.42861987595061,
       -20.87206907786257,
       0
      ],
      [
       -49.42759224012411,
       -20.872012493033235,
       0
      ],
      [
       -49.42666319274203,
       -20.87212180523972,
       0
      ],
      [
       -49.42621274502754,
       -20.872174803056136,
       0
      ],
      [
       -49.42608500156881,
       -20.8746621330961,
       0
      ],
      [
       -49.42796381697916,
       -20.87773662345615,
       0
      ],
      [
       -49.43101016595147,
       -20.879464676368606,
       0
      ],
      [
       -49.432617860722715,
       -20.879729280288277,
       0
      ],
      [
       -49.433852381619204,
       -20.881991906360245,
       0
      ],
      [
       -49.43573795164819,
       -20.88683093925085,
       0
      ],
      [
       -49.4351849292167,
       -20.8876450502553,
       0
      ],
      [
       -49.432966329558305,
       -20.891858326827116,
       0
      ],
      [
       -49.432396839940296,
       -20.89233737152457,
       0
      ],
      [
       -49.42332065427672,
       -20.880222238012244,
       0
      ],
      [
       -49.41741618094667,
       -20.8870781078969,
       0
      ],
      [
       -49.41628487204145,
       -20.884135404122745,
       0
      ],
      [
       -49.41820964581974,
       -20.874101739600448,
       0
      ],
      [
       -49.41401050883979,
       -20.875717033090567,
       0
      ],
      [
       -49.40615064840895,
       -20.87974718582743,
       0
      ],
      [
       -49.403783176234015,
       -20.881368043392207,
       0
      ],
      [
       -49.40140664061384,
       -20.883417709529166,
       0
      ],
      [
       -49.39980139025608,
       -20.887093329236382,
       0
      ],
      [
       -49.39626534163241,
       -20.88892878718399,
       0
      ],
      [
       -49.39481194397925,
       -20.888439212356943,
       0
      ],
      [
       -49.39323283818347,
       -20.890296129319687,
       0
      ],
      [
       -49.395561090262234,
       -20.89079197468106,
       0
      ],
      [
       -49.395044612056815,
       -20.893413275416858,
       0
      ],
      [
       -49.391702133327506,
       -20.89328444009331,
       0
      ],
      [
       -49.39064649823309,
       -20.897656547211028,
       0
      ],
      [
       -49.391345235016104,
       -20.902358493199383,
       0
      ],
      [
       -49.389472269309614,
       -20.90242982235824,
       0
      ],
      [
       -49.389535218873334,
       -20.903472277697254,
       0
      ],
      [
       -49.38794234267926,
       -20.90324279314937,
       0
      ],
      [
       -49.38758096914917,
       -20.900437801552226,
       0
      ],
      [
       -49.383936213809996,
       -20.900945011270682,
       0
      ],
      [
       -49.37729911178678,
       -20.89599143649193,
       0
      ],
      [
       -49.375342059504945,
       -20.89638873340741,
       0
      ],
      [
       -49.37367291695816,
       -20.896716965648967,
       0
      ],
      [
       -49.372374266597326,
       -20.897035853578462,
       0
      ],
      [
       -49.36810814258426,
       -20.894232715082786,
       0
      ],
      [
       -49.36580578368165,
       -20.9040727748212,
       0
      ],
      [
       -49.365825101576554,
       -20.904172622415185,
       0
      ],
      [
       -49.36487083695869,
       -20.906316980507437,
       0
      ],
      [
       -49.35600270726821,
       -20.894066962938158,
       0
      ],
      [
       -49.34333992509928,
       -20.89680571819605,
       0
      ],
      [
       -49.33623582882042,
       -20.90015363099954,
       0
      ],
      [
       -49.33365805359626,
       -20.898775659361114,
       0
      ],
      [
       -49.33547300294856,
       -20.895423120237442,
       0
      ],
      [
       -49.32039690928141,
       -20.894508030184138,
       0
      ],
      [
       -49.31832993481741,
       -20.890508997670278,
       0
      ],
      [
       -49.336224803238,
       -20.892149744525202,
       0
      ],
      [
       -49.34004440100308,
       -20.884523358057244,
       0
      ],
      [
       -49.33766927540399,
       -20.88151182590948,
       0
      ],
      [
       -49.332463633979,
       -20.87611865545549,
       0
      ],
      [
       -49.32695975797177,
       -20.871162005656384,
       0
      ],
      [
       -49.32572310174557,
       -20.87028072466334,
       0
      ],
      [
       -49.323648943721,
       -20.86452627211022,
       0
      ],
      [
       -49.32212215485721,
       -20.860636426008597,
       0
      ],
      [
       -49.32126091500558,
       -20.859780026851457,
       0
      ],
      [
       -49.31767044610189,
       -20.86290217093136,
       0
      ],
      [
       -49.31248068333923,
       -20.868784865262008,
       0
      ],
      [
       -49.313055305354624,
       -20.86921070161323,
       0
      ],
      [
       -49.31158588731412,
       -20.871095020965598,
       0
      ],
      [
       -49.31095585848186,
       -20.87068358998385,
       0
      ],
      [
       -49.30957964405976,
       -20.872302758584684,
       0
      ],
      [
       -49.30867415232616,
       -20.872120997899216,
       0
      ],
      [
       -49.30882690393283,
       -20.87151469104121,
       0
      ],
      [
       -49.30702829612381,
       -20.871181073082926,
       0
      ],
      [
       -49.30337664565217,
       -20.87779624992704,
       0
      ],
      [
       -49.30225159818649,
       -20.878118480751315,
       0
      ],
      [
       -49.300793015384805,
       -20.878250974906745,
       0
      ],
      [
       -49.30371752219291,
       -20.87257879572008,
       0
      ],
      [
       -49.297965095603665,
       -20.870850849224126,
       0
      ],
      [
       -49.303077222813826,
       -20.862197643462473,
       0
      ],
      [
       -49.30414833838551,
       -20.862609260525524,
       0
      ],
      [
       -49.304693370437576,
       -20.861320547707773,
       0
      ],
      [
       -49.305342886632786,
       -20.861476219694588,
       0
      ],
      [
       -49.311172951834244,
       -20.850307389115883,
       0
      ],
      [
       -49.31616133839697,
       -20.8361605144455,
       0
      ],
      [
       -49.31325960148008,
       -20.828790827343273,
       0
      ],
      [
       -49.310551835540195,
       -20.82365586172125,
       0
      ],
      [
       -49.32042054545156,
       -20.818886203385944,
       0
      ],
      [
       -49.314378254786824,
       -20.808294381128224,
       0
      ],
      [
       -49.31311426391371,
       -20.80469090653746,
       0
      ],
      [
       -49.31016285427724,
       -20.80528281718234,
       0
      ],
      [
       -49.30849977130559,
       -20.799200132551235,
       0
      ],
      [
       -49.2989028306589,
       -20.804641661041774,
       0
      ],
      [
       -49.29532371256775,
       -20.803250724221748,
       0
      ],
      [
       -49.29561668421916,
       -20.790639733359054,
       0
      ],
      [
       -49.30310040613276,
       -20.792446316837818,
       0
      ],
      [
       -49.30366978514907,
       -20.789927494206463,
       0
      ]
     ]
    ],
    "type": "Polygon"
   },
   "id": 24,
   "properties": {
    "COLOR": 3,
    "ELEVATION": 0,
    "LAYER": "0",
    "LINETYPE": "Continuous",
    "LINEWT": 25,
    "OBJECTID": 24,
    "REFNAME": null,
    "SHAPE.AREA": 243929057.878901,
    "SHAPE.LEN": 116544.17064152,
    "SJRP.PERÍMETROURBANO_PD2020.ENTITY": "LWPolyline"
   },
   "type": "Feature"
  },
  {
   "geometry": {
    "coordinates": [
     [
      [
       -49.322902756154924,
       -20.709492658455076,
       0
      ],
      [
       -49.322898805017935,
       -20.711330457123672,
       0
      ],
      [
       -49.32046914132402,
       -20.710349112277477,
       0
      ],
      [
       -49.31958970142022,
       -20.7106766844845,
       0
      ],
      [
       -49.319463762680954,
       -20.710377359069668,
       0
      ],
      [
       -49.31871599142531,
       -20.710370057349728,
       0
      ],
      [
       -49.319243296915,
       -20.709547178648887,
       0
      ],
      [
       -49.31653770030717,
       -20.708668763250333,
       0
      ],
      [
       -49.31750577968613,
       -20.707944670509267,
       0
      ],
      [
       -49.322902756154924,
       -20.709492658455076,
       0
      ]
     ]
    ],
    "type": "Polygon"
   },
   "id": 321,
   "properties": {
    "COLOR": null,
    "ELEVATION": null,
    "LAYER": null,
    "LINETYPE": null,
    "LINEWT": null,
    "OBJECTID": 321,
    "REFNAME": null,
    "SHAPE.AREA": 103812.95343687,
    "SHAPE.LEN": 1812.03890475617,
    "SJRP.PERÍMETROURBANO_PD2020.ENTITY": null
   },
   "type": "Feature"
  }
 ],
 "type": "FeatureCollection"
}